id_sch,name,address,dcode,dname,type,tel,fax,url,num_stu,room,teacher,lat,lng
3110010111,โรงเรียนวัดใหม่อมตรส,132 ซอยอมตรส ถนนสามเสน แขวงบ้านพานถม เขตพระนคร กทม 10200,1001,พระนคร  ,โรงเรียนขนาดเล็ก  (จำนวนนักเรียนตั้งแต่ 1-400 คน),0 2281 7670,-,school.bangkok.go.th/watmaiamatarod/,25,8,10,13.78115363,100.4792294
3110013301,โรงเรียนวัดหนองจอก (ภักดีนรเศรษฐ),18 หมู่ 2 ถ.เลียบวารี แขวงกระทุ่มราย เขตหนองจอก,1003,หนองจอก,โรงเรียนขนาดใหญ่  (จำนวนนักเรียนตั้งแต่ 801 คนขึ้นไป),0 2543 1160,-,sites.google.com/site/schoolpakdee/,1908,54,94,13.85712466,100.8603072
3110013302,โรงเรียนสุเหร่าหะยีมินา,หมู่ 4 ถ.สังฆสันติสุข แขวงกระทุ่มราย เขตหนองจอก,1003,หนองจอก,โรงเรียนขนาดกลาง  (จำนวนนักเรียนตั้งแต่ 401-800 คน),0 2543 1161,-,facebook.com/Hayeemina,825,26,39,13.8552929,100.869413
3110013303,โรงเรียนสุเหร่าบ้านเกาะ,14 หมู่ 1 แขวงหนองจอก เขตหนองจอก,1003,หนองจอก,โรงเรียนขนาดเล็ก  (จำนวนนักเรียนตั้งแต่ 1-400 คน),0 2989 9727,0 2989 9727,facebook.com/srbkschool,249,8,12,13.87430959,100.8833949
3110013304,โรงเรียนลำบุหรี่พวง,หมู่ 14 ลำบุหรี่พวง แขวงคลองสิบ เขตหนองจอก,1003,หนองจอก,โรงเรียนขนาดเล็ก  (จำนวนนักเรียนตั้งแต่ 1-400 คน),0 2988 6354,-,facebook.com/lumburipoung,85,8,10,13.88798957,100.8495072
3110023305,โรงเรียนหนองจอกพิทยานุสรณ์,31/1 หมู่ 9 มิตรไมตรี แขวงหนองจอก เขตหนองจอก,1003,หนองจอก,โรงเรียนขนาดใหญ่  (จำนวนนักเรียนตั้งแต่ 801 คนขึ้นไป),0 2543 1166,0 2543 1166 กด 9,http://njpschool.ac.th/,2356,63,110,13.86349761,100.854188
3110013306,โรงเรียนสุเหร่าศาลาแดง,25 หมู่ 5 ถ.ผ่องพันธ์ แขวงหนองจอก เขตหนองจอก,1003,หนองจอก,โรงเรียนขนาดเล็ก  (จำนวนนักเรียนตั้งแต่ 1-400 คน),0 2543 1163,-,facebook.com/โรงเรียนสุเหร่าศาลาแดง-Suraosaladeang-School-152887588201405,202,8,12,13.8503165,100.8971684
3110013307,โรงเรียนสุเหร่าใหม่,6 คลองแสนแสบ แขวงหนองจอก เขตหนองจอก,1003,หนองจอก,โรงเรียนขนาดเล็ก  (จำนวนนักเรียนตั้งแต่ 1-400 คน),0 2543 1439,0 2543 1439,http://suraomai.ac.th/,321,14,16,13.85341718,100.8853724
3110013308,โรงเรียนสามแยกท่าไข่,หมู่ 6 ถ.สังฆสันติสุข แขวงกระทุ่มราย เขตหนองจอก,1003,หนองจอก,โรงเรียนขนาดเล็ก  (จำนวนนักเรียนตั้งแต่ 1-400 คน),0 2543 1309,0 2543 1309,http://samyakthakhai.ac.th/,155,8,12,13.84791587,100.890887
3110013309,โรงเรียนหลวงแพ่ง (บำรุงรัฐกิจ),24/1หมู่ 12 แขวงกระทุ่มราย เขตหนองจอก,1003,หนองจอก,โรงเรียนขนาดเล็ก  (จำนวนนักเรียนตั้งแต่ 1-400 คน),0 2988 2295,0 2988 2295,facebook.com/loungpang.bumlunglattakit,241,8,13,13.81577584,100.9351849
3110013310,โรงเรียนนีลราษฎร์อุปถัมภ์,59/60 หมู่ 10 แขวงกระทุ่มราย เขตหนองจอก,1003,หนองจอก,โรงเรียนขนาดเล็ก  (จำนวนนักเรียนตั้งแต่ 1-400 คน),0 2988 2296,0 2988 2296,facebook.com/pages/โรงเรียนนีลราษฎร์อุปถัมภ์/561136793912621,118,8,11,13.83536413,100.9104858
3110013311,โรงเรียนบ้านเจียรดับ,46 หมู่ 2 ซอยเลียบวารี 32 ถนนเลียบวารี แขวงโคกแฝด เขตหนองจอก,1003,หนองจอก,โรงเรียนขนาดใหญ่  (จำนวนนักเรียนตั้งแต่ 801 คนขึ้นไป),0 2543 1165,-,www.jd.ac.th/,724,28,40,13.8551132,100.8285914
3110013312,โรงเรียนวัดทรัพย์สโมสร,56 หมู่ 11 ถนนเลียบวารี แขวงโคกแฝด เขตหนองจอก,1003,หนองจอก,โรงเรียนขนาดใหญ่  (จำนวนนักเรียนตั้งแต่ 801 คนขึ้นไป),0 2186 0506,0 2186 0506,www.watsubschool.com/,786,26,45,13.85061564,100.8037663
3110013313,โรงเรียนสุเหร่านาตับ,หมู่ 9 ถ.เลียบวารี แขวงโคกแฝด เขตหนองจอก,1003,หนองจอก,โรงเรียนขนาดเล็ก  (จำนวนนักเรียนตั้งแต่ 1-400 คน),0 2898 8480,0 2898 8480,facebook.com/โรงเรียนสุเหร่านาตับ-1506222913037219/,175,8,12,13.82618468,100.8161381
3110013314,โรงเรียนสุเหร่าอีรั้ว,250 หมู่ 7 ถ.เชื่อมสัมพันธ์ แขวงโคกแฝด เขตหนองจอก,1003,หนองจอก,โรงเรียนขนาดเล็ก  (จำนวนนักเรียนตั้งแต่ 1-400 คน),0 2988 0512,0 2988 0512,http://erua.ac.th/,190,9,11,13.82018415,100.8318422
3110013315,โรงเรียนอิสลามลำไทร,หมู่ 5 ลำไทร แขวงโคกแฝด เขตหนองจอก,1003,หนองจอก,โรงเรียนขนาดเล็ก  (จำนวนนักเรียนตั้งแต่ 1-400 คน),0 2543 1558,-,facebook.com/islamlamsai,241,8,12,13.83225136,100.8412967
3110013316,โรงเรียนบ้านลำต้นกล้วย,10/6 หมู่ 6 แขวงโคกแฝด เขตหนองจอก,1003,หนองจอก,โรงเรียนขนาดกลาง  (จำนวนนักเรียนตั้งแต่ 401-800 คน),0 2543 1202,-,facebook.com/โรงเรียนบ้านลำต้นกล้วย-549021921822555,511,19,25,13.81891429,100.8505144
3110013317,โรงเรียนวัดพระยาปลา,15/1 ถ.ประชาสำราญ แขวงคลองสิบสอง เขตหนองจอก,1003,หนองจอก,โรงเรียนขนาดกลาง  (จำนวนนักเรียนตั้งแต่ 401-800 คน),0 2563 1118,0 2563 1118,facebook.com/watprayapla,750,25,38,13.91372581,100.8630441
3110013318,โรงเรียนวัดแสนเกษม,14 หมู่ 8 แขวงคลองสิบสอง เขตหนองจอก,1003,หนองจอก,โรงเรียนขนาดเล็ก  (จำนวนนักเรียนตั้งแต่ 1-400 คน),0 2989 9575,0 2989 9575,www.sankasemschool.com/intro.aspx,165,8,11,13.90470766,100.889867
3110013319,โรงเรียนวัดใหม่เจริญราษฎร์,หมู่ 11 คลองสิบสี่ แขวงคลองสิบสอง เขตหนองจอก,1003,หนองจอก,โรงเรียนขนาดเล็ก  (จำนวนนักเรียนตั้งแต่ 1-400 คน),0 2989 9821,0 2989 9821,facebook.com/watmai.chareonrad,67,8,9,13.88736493,100.9060729
3110023320,โรงเรียนวัดสามง่าม,1 หมู่ 8 ถ.คู้คลองสิบ แขวงคู้ฝั่งเหนือ เขตหนองจอก,1003,หนองจอก,โรงเรียนขนาดใหญ่  (จำนวนนักเรียนตั้งแต่ 801 คนขึ้นไป),0 2906 1722,0 2906 1013,www.watsamngam-school.com,810,25,43,13.88902684,100.8075324
3110013321,โรงเรียนวัดสีชมพู,1/1 หมู่ 4 ถ.คลองสิบ แขวงคลองสิบ เขตหนองจอก,1003,หนองจอก,โรงเรียนขนาดเล็ก  (จำนวนนักเรียนตั้งแต่ 1-400 คน),0 2988 6099,-,facebook.com/chompooschool,127,8,10,13.92921754,100.8222979
3110013322,โรงเรียนลำเจดีย์,หมู่ 5 ถ.คู้คลองสิบ แขวงคู้ฝั่งเหนือ เขตหนองจอก,1003,หนองจอก,โรงเรียนขนาดเล็ก  (จำนวนนักเรียนตั้งแต่ 1-400 คน),0 2988 6715,-,-,151,8,11,13.87799798,100.8200376
3110013323,โรงเรียนสุเหร่าคลองเก้า,หมู่ 2 คลองเก้า แขวงคลองสิบ เขตหนองจอก,1003,หนองจอก,โรงเรียนขนาดเล็ก  (จำนวนนักเรียนตั้งแต่ 1-400 คน),0 2989 7377,0 2989 7377,schoolweb.eduzones.com/suraokhlongkao/,230,8,12,13.90475356,100.7927677
3110013324,โรงเรียนสุเหร่าคลองสิบ,18 หมู่ 8 แขวงคลองสิบ เขตหนองจอก,1003,หนองจอก,โรงเรียนขนาดเล็ก  (จำนวนนักเรียนตั้งแต่ 1-400 คน),0 2988 6307,0 2988 6307,facebook.com/people/โรงเรียนสุเหร่าคลองสิบ-สำนักงานเขตหนองจอก/100006698850850,80,8,9,13.90414077,100.8121
3110013325,โรงเรียนสุเหร่าคลองสิบเอ็ด,58 หมู่ 11 แขวงคลองสิบ เขตหนองจอก,1003,หนองจอก,โรงเรียนขนาดเล็ก  (จำนวนนักเรียนตั้งแต่ 1-400 คน),0 2988 6297,-,-,126,8,11,13.91294134,100.8389912
3110013326,โรงเรียนสุเหร่าสนามกลางลำ,74 หมู่ 8 ถ.แขวงคู้ฝั่งเหนือ เขตหนองจอก,1003,หนองจอก,โรงเรียนขนาดเล็ก  (จำนวนนักเรียนตั้งแต่ 1-400 คน),0 2988 6754,-,www.klanglamschool.com/,132,8,11,13.89513341,100.8285905
3110013327,โรงเรียนวัดใหม่กระทุ่มล้ม,หมู่ 4 ถ.ร่วมพัฒนา แขวงลำต้อยติ่ง เขตหนองจอก,1003,หนองจอก,โรงเรียนขนาดเล็ก  (จำนวนนักเรียนตั้งแต่ 1-400 คน),0 2988 7137,-,-,109,8,11,13.7799495,100.8711238
3110013328,โรงเรียนผลลีรุ่งเรือง,หมู่ 13 หลวงแพ่ง แขวงกระทุ่มราย เขตหนองจอก,1003,หนองจอก,โรงเรียนขนาดเล็ก  (จำนวนนักเรียนตั้งแต่ 1-400 คน),0 2317 8322,0 2317 8322,http://phonlee.org/,85,8,10,13.79248274,100.911357
3110013329,โรงเรียนวัดราษฎร์บำรุง,8 หมู่ 8 ถ.สุวินทวงศ์ แขวงลำต้อยติ่ง เขตหนองจอก,1003,หนองจอก,โรงเรียนขนาดกลาง  (จำนวนนักเรียนตั้งแต่ 401-800 คน),0 2988 7138,0 2988 7138,http://radbumrung.com/index1.html,456,16,22,13.81107635,100.8781601
3110013330,โรงเรียนคลองสอง,20/3 หมู่.8 ถ.สุวินทวงศ์ แขวงลำต้อยติ่ง เขตหนองจอก,1003,หนองจอก,โรงเรียนขนาดเล็ก  (จำนวนนักเรียนตั้งแต่ 1-400 คน),0 2988 7952,0 2988 7952,facebook.com/klongsongbma,131,8,13,13.80239369,100.8884203
3110013331,โรงเรียนคารีอุปถัมภ์,55/4 หมู่ 8 ซ.สมานศักดิ์ แขวงลำผักชี เขตหนองจอก,1003,หนองจอก,โรงเรียนขนาดเล็ก  (จำนวนนักเรียนตั้งแต่ 1-400 คน),0 2988 7225,0 2988 7225,facebook.com/profile.php?id=100007587240813,143,8,13,13.78657689,100.8588593
3110023332,โรงเรียนสุเหร่าลำแขก,หมู่ 9 ถ.สุวินทวงศ์ แขวงลำผักชี เขตหนองจอก,1003,หนองจอก,โรงเรียนขนาดกลาง  (จำนวนนักเรียนตั้งแต่ 401-800 คน),0 2543 5765,0 2543 5765,http://lumkak.org/,557,20,29,13.80420381,100.8596555
3110013333,โรงเรียนศิริวังวิทยาคาร,หมู่ 10 ถ.สุวินทวงศ์ แขวงลำผักชี เขตหนองจอก,1003,หนองจอก,โรงเรียนขนาดเล็ก  (จำนวนนักเรียนตั้งแต่ 1-400 คน),0 2178 3421,0 2178 3421,http://schoolweb.eduzones.com/siriwang/content.php?view=20160203113803wchGe9z,205,8,12,13.80368395,100.8458997
3110023334,โรงเรียนสังฆประชานุสรณ์,3/3-4 หมู่ 7 แขวงลำผักชี เขตหนองจอก,1003,หนองจอก,โรงเรียนขนาดใหญ่  (จำนวนนักเรียนตั้งแต่ 801 คนขึ้นไป),0 2988 5967,0 2988 5967,facebook.com/people/โรงเรียน-สังฆประชานุสสรณ์/100002212196150,795,25,42,13.76975323,100.8365251
3110013335,โรงเรียนวัดอู่ตะเภา,21 หมู่ 4 ถ.ฉลองกรุง แขวงลำผักชี เขตหนองจอก,1003,หนองจอก,โรงเรียนขนาดเล็ก  (จำนวนนักเรียนตั้งแต่ 1-400 คน),0 2956 5391,-,http://watutaphaoschool.org/,233,8,12,13.79167512,100.8127545
3110013337,โรงเรียนลำผักชี,หมู่ 10 ถ.สุวินทวงศ์ แขวงลำผักชี เขตหนองจอก,1003,หนองจอก,โรงเรียนขนาดเล็ก  (จำนวนนักเรียนตั้งแต่ 1-400 คน),0 2988 5400,0 2988 5400,https://sites.google.com/site/lampagchee/,207,8,10,13.79167783,100.8355313
3110023336,โรงเรียนวัดลำต้อยติ่ง,หมู่ 1 ถ.วิบูลย์สาธุกิจ แขวงลำต้อยติ่ง เขตหนองจอก,1003,หนองจอก,โรงเรียนขนาดกลาง  (จำนวนนักเรียนตั้งแต่ 401-800 คน),0 2988 7224,-,facebook.com/people/โรงเรียนวัดลำต้อยติ่ง-หนองจอก/100002981161959,414,14,19,13.75547673,100.8886628
3110023401,โรงเรียนวัดบางปะกอก,24 ถ.สุขสวัสดิ์ แขวงบางปะกอก เขตราษฎร์บูรณะ,1024,ราษฎร์บูรณะ,โรงเรียนขนาดใหญ่  (จำนวนนักเรียนตั้งแต่ 801 คนขึ้นไป),0 2427 2607,-,www.wbpksc.com/,2286,70,111,13.68210077,100.4954523
3110023402,โรงเรียนรัตนจีนะอุทิศ,649/3 หมู่ 2 ซอย30 ถนนสุขสวัสดิ์ แขวงบางปะกอก เขตราษฎร์บูรณะ กทม 10140,1024,ราษฎร์บูรณะ,โรงเรียนขนาดใหญ่  (จำนวนนักเรียนตั้งแต่ 801 คนขึ้นไป),0 2427 7408,-,www.rattanasc.ob.tc,772,31,40,13.66933027,100.4920715
3110013403,โรงเรียนวัดประเสริฐสุทธาวาส,10 ถนนราษฎร์พัฒนา แขวงบางปะกอก เขตราษฎร์บูรณะ กทม 10140,1024,ราษฎร์บูรณะ,โรงเรียนขนาดเล็ก  (จำนวนนักเรียนตั้งแต่ 1-400 คน),0 2427 4626,-,facebook.com/watprasertschool,138,8,12,13.68008088,100.5035932
3110013404,โรงเรียนวัดแจงร้อน,272 หมู่ - ซอยราษฎร์บูรณะ 37 ถนนราษฎร์บูรณะ แขวงราษฎร์บูรณะ เขตราษฎร์บูรณะ กรุงเทพมหานคร 10140,1024,ราษฎร์บูรณะ,โรงเรียนขนาดกลาง  (จำนวนนักเรียนตั้งแต่ 401-800 คน),0 2462 5422,0 2462 5540,www.watcheangron.com/mainpage,237,12,15,13.67529919,100.5198606
3110013405,โรงเรียนวัดสน,102 หมู่ 5 ซอยสุขสวัสดิ์ 35 ถนนสุขสวัสดิ์ แขวงราษฎร์บูรณะ เขตราษฎร์บูรณะ กรุงเทพ 10140,1024,ราษฎร์บูรณะ,โรงเรียนขนาดกลาง  (จำนวนนักเรียนตั้งแต่ 401-800 คน),0 2462 6283,-,facebook.com/watsonschool.chool,192,8,12,13.67239223,100.5133433
3110013406,โรงเรียนวัดสารอด,4 ซ.สุขสวัสดิ์ 44 แขวงราษฎร์บูรณะ เขตราษฎร์บูรณะ กรุงเทพมหานคร 10140,1024,ราษฎร์บูรณะ,โรงเรียนขนาดกลาง  (จำนวนนักเรียนตั้งแต่ 401-800 คน),0 2427 7189,-,http://sarodschool.com/,198,9,14,13.673531,100.5029785
3110013501,โรงเรียนวัดหนองแขม (สหราษฎร์บูรณะ),66 หมู่ 8 ถนนเลียบคลองภาษีเจริญฝั่งใต้ เขตหนองแขม กรุงเทพมหานคร 10160,1023,หนองแขม,โรงเรียนขนาดใหญ่  (จำนวนนักเรียนตั้งแต่ 801 คนขึ้นไป),0 2429 3714,-,www.watnongkhamschool.com/,1876,53,88,13.67698207,100.3394333
3110013502,โรงเรียนวัดอุดมรังสี,563 ถ.เพชรเกษม 79 แขวงหนองค้างพลู เขตหนองแขม,1023,หนองแขม,โรงเรียนขนาดใหญ่  (จำนวนนักเรียนตั้งแต่ 801 คนขึ้นไป),0 2421 0220,-,www.udomrungsee.com/,2136,65,113,13.70404048,100.3491099
3110013503,โรงเรียนประชาบำรุง,10 ถนนเลียบคลองภาษีเจริญฝั่งเหนือ แขวงหนองแขม เขตหนองแขม กทม 10160,1023,หนองแขม,โรงเรียนขนาดใหญ่  (จำนวนนักเรียนตั้งแต่ 801 คนขึ้นไป),0 2421 0168,-,facebook.com/โรงเรียนประชาบำรุง-เขตหนองแขม-กรุงเทพมหานคร-775136772537466/,1155,38,57,13.6868023,100.3637672
3110013504,โรงเรียนบ้านขุนประเทศ,8 ซอย 110 แยก 19 ถนนเพชรเกษม แขวงหนองค้างพลู เขตหนองแขม กทม 10160,1023,หนองแขม,โรงเรียนขนาดใหญ่  (จำนวนนักเรียนตั้งแต่ 801 คนขึ้นไป),0 2421 0075,-,www.bankhun.ac.th/,1541,58,78,13.72189131,100.3430443
3110013505,โรงเรียนมนต์จรัสสิงห์อนุสรณ์,16/1 ม.9 พุทธมณฑลสาย 3 ซอย 7 แขวงหนองค้างพลู เขตหนองแขม กทม 10160,1023,หนองแขม,โรงเรียนขนาดกลาง  (จำนวนนักเรียนตั้งแต่ 401-800 คน),0 2421 3821,-,facebook.com/MonjarassinghaAnusornSchool,309,11,16,13.72617687,100.3594542
3110013506,โรงเรียนวัดศรีนวลธรรมวิมล,ถ.เพชรเกษม 81 แขวงหนองแขม เขตหนองแขม,1023,หนองแขม,โรงเรียนขนาดใหญ่  (จำนวนนักเรียนตั้งแต่ 801 คนขึ้นไป),0 2429 3655,-,facebook.com/โรงเรียนวัดศรีนวลธรรมวิมล-157669734257000/,1313,42,69,13.6569886,100.3438778
3110013701,โรงเรียนวัดใต้ (ราษฎรนิรมิต),435 ถ.สุขุมวิท แขวงพระโขนง เขตสวนหลวง,1034,สวนหลวง,โรงเรียนขนาดกลาง  (จำนวนนักเรียนตั้งแต่ 401-800 คน),0 2331 1071,-,http://203.155.220.242/wattai/index.htm,376,17,19,13.71310448,100.6038411
3110013702,โรงเรียนนาคนาวาอุปถัมภ์,96 ซ.ริมคลองบ้านป่า ถ.พัฒนาการ แขวงสวนหลวง เขตสวนหลวง กทม. 10250,1034,สวนหลวง,โรงเรียนขนาดใหญ่  (จำนวนนักเรียนตั้งแต่ 801 คนขึ้นไป),0 2314 0344,0 2314 0344,www.narknawa.com/,1062,36,61,13.73074201,100.6131886
3110023703,โรงเรียนวัดปากบ่อ,292 ซ.อ่อนนุช35 ถ.สุขุมวิท77 แขวง/เขตสวนหลวง กทม. 10250,1034,สวนหลวง,โรงเรียนขนาดใหญ่  (จำนวนนักเรียนตั้งแต่ 801 คนขึ้นไป),0 2321 2684,0 2321 2684,http://203.155.220.242/watpakbor/,1139,52,69,13.71376095,100.6306018
3110013704,โรงเรียนสุเหร่าใหม่,27 หมู่ 2 ถ.ศรีนครินทร์ แขวงสวนหลวง เขตสวนหลวง,1034,สวนหลวง,โรงเรียนขนาดกลาง  (จำนวนนักเรียนตั้งแต่ 401-800 คน),0 2312 2559,-,facebook.com/suraomaischool,454,21,26,13.71633403,100.6392549
3110013705,โรงเรียนหัวหมาก,55 ซอยเลียบทางรถไฟ ถนนศรีนครินทร์ แขวงสวนหลวง เขตสวนหลวง กทม 10250,1034,สวนหลวง,โรงเรียนขนาดเล็ก  (จำนวนนักเรียนตั้งแต่ 1-400 คน),0 2321 3690,-,facebook.com/huamak.school,251,11,15,13.7376465,100.6435175
3110013706,โรงเรียนคลองกลันตัน (มีสุวรรณอนุสรณ์),646 ซ.ประจิตต์ ถ.ศรีนครินทร์ แขวงสวนหลวง เขตสวนหลวง กรุงเทพมหานคร 10250,1034,สวนหลวง,โรงเรียนขนาดกลาง  (จำนวนนักเรียนตั้งแต่ 401-800 คน),0 2362 5245,-,http://203.155.220.242/klongkalantan/,491,16,26,13.73318354,100.6404629
3110013707,โรงเรียนวัดทองใน,412 ซอยอ่อนนุช 25 ถนนสุขุมวิท 77 แขวงสวนหลวง เขตสวนหลวง กทม 10250,1034,สวนหลวง,โรงเรียนขนาดเล็ก  (จำนวนนักเรียนตั้งแต่ 1-400 คน),0 2311 1629,-,facebook.com/watthongnaischool412,113,8,11,13.71203366,100.622491
3110023801,โรงเรียนสามเสนนอก(ประชาราษฎร์อนุกูล),2000/22 ถนนประชาสงเคราะห์ แขวงห้วยขวาง เขตดินแดง,1026,ดินแดง,โรงเรียนขนาดใหญ่  (จำนวนนักเรียนตั้งแต่ 801 คนขึ้นไป),0 2277 0557,-,http://samsennok.ac.th/ssn57/,3019,95,144,13.77785524,100.5695369
3110023802,โรงเรียนวิชูทิศ,4095/1 ซอยประชาสงเคราะห์ 13 ถ.ประชาสงเคราะห์ แขวงดินแดง เขตดินแดง,1026,ดินแดง,โรงเรียนขนาดใหญ่  (จำนวนนักเรียนตั้งแต่ 801 คนขึ้นไป),0 2246 1551,-,www.wichutit.ac.th/,1027,56,79,13.76808629,100.5563491
3110013803,โรงเรียนวิชากร,3981 ถ.มิตรไมตรี2 แขวงดินแดง เขตดินแดง กรุงเทพฯ,1026,ดินแดง,โรงเรียนขนาดใหญ่  (จำนวนนักเรียนตั้งแต่ 801 คนขึ้นไป),0 2246 1555,0 2246 1555,www.wichakon.ac.th/,1019,33,57,13.76796688,100.5552201
3110013901,โรงเรียนวัดหลักสี่ (ทองใบทิวารีวิทยา),101 ถนนวิภาวดีรังสิต แขวงตลาดบางเขน เขตหลักสี่ กทม.10210,1041,หลักสี่,โรงเรียนขนาดใหญ่  (จำนวนนักเรียนตั้งแต่ 801 คนขึ้นไป),0 2573 7123,0 2573 7123,www.watlaksischool.com/,407,19,22,13.88923271,100.5824971
3110023902,โรงเรียนทุ่งสองห้อง (คุปตัษเฐียรอุทิศ),207 หมู่ 4 แขวงทุ่งสองห้อง เขตหลักสี่ กรุงเทพมหานคร,1041,หลักสี่,โรงเรียนขนาดใหญ่  (จำนวนนักเรียนตั้งแต่ 801 คนขึ้นไป),0 2573 4908,0 2573 4908,www.bmasmartschool.com/thoongsonghong/,490,22,31,13.88534329,100.5604223
3110023903,โรงเรียนเคหะทุ่งสองห้องวิทยา 1,326 หมู่ 2 ถนนวิภาวดีรังสิต แขวงทุ่งสองห้อง เขตหลักสี่ กรุงเทพมหานคร,1041,หลักสี่,โรงเรียนขนาดใหญ่  (จำนวนนักเรียนตั้งแต่ 801 คนขึ้นไป),0 2573 4835,-,www.keha1.com/,975,34,53,13.90099683,100.5832155
3110013904,โรงเรียนเคหะทุ่งสองห้องวิทยา 2,314 หมู่ 2 ถนนวิภาวดีรังสิต แขวงทุ่งสองห้อง เขตหลักสี่ กรุงเทพมหานคร 10210,1041,หลักสี่,โรงเรียนขนาดกลาง  (จำนวนนักเรียนตั้งแต่ 401-800 คน),0 2573 4836,-,www.kheha2.com,423,25,27,13.90228317,100.5785977
3110023905,โรงเรียนการเคหะท่าทราย,304/233 ม.6 เคหะชุมชนท่าทราย ถนนประชาชื่น แขวงทุ่งสองห้อง เขตหลักสี่ กรุงเทพมหานคร,1041,หลักสี่,โรงเรียนขนาดใหญ่  (จำนวนนักเรียนตั้งแต่ 801 คนขึ้นไป),0 2589 9777,-,www.ktssc.com/,848,29,55,13.87341188,100.5532925
3110013906,โรงเรียนบางเขน (ไว้สาลีอนุสรณ์),106 หมู่ 1 ถ.วิภาวดีรังสิต แขวงตลาดบางเขน เขตหลักสี่,1041,หลักสี่,โรงเรียนขนาดใหญ่  (จำนวนนักเรียนตั้งแต่ 801 คนขึ้นไป),0 2589 5367,0 2954 7869,http://vaisalee.com,406,17,25,13.86082258,100.5671229
3110024001,โรงเรียนสายไหม (ทัสนารมย์อนุสรณ์),19/3 หมู่ 3 ถ.ออเงิน แขวงสายไหม เขตสายไหม,1042,สายไหม,โรงเรียนขนาดใหญ่  (จำนวนนักเรียนตั้งแต่ 801 คนขึ้นไป),0 2536 0363,-,www.saimaischool.com/,2042,57,98,13.92953893,100.6597177
3110014002,โรงเรียนวัดเกาะสุวรรณาราม,1 หมู่ 3 แขวงคลองถนน เขตสายไหม กรุงเทพมหานคร 10220,1042,สายไหม,โรงเรียนขนาดใหญ่  (จำนวนนักเรียนตั้งแต่ 801 คนขึ้นไป),0 2523 6845,-,www.govesite.com/wskr/index.php?p=1,1463,45,74,13.90812905,100.6338694
3110014003,โรงเรียนออเงิน,60 หมู่ 1 แขวงออเงิน เขตสายไหม กรุงเทพมหานคร 10220,1042,สายไหม,โรงเรียนขนาดกลาง  (จำนวนนักเรียนตั้งแต่ 401-800 คน),0 2533 3494,0 2966 0474,https://sites.google.com/site/orngernschool/,351,13,23,13.90394184,100.6649572
3110024004,โรงเรียนวัดหนองใหญ่,1 หมู่ 1 ถ.พระยาสุเรนทร์ แขวงสายไหม เขตสายไหม,1042,สายไหม,โรงเรียนขนาดใหญ่  (จำนวนนักเรียนตั้งแต่ 801 คนขึ้นไป),0 2533 3493,0 2533 3493,www.watnongyaischool.ac.th/,1382,44,73,13.91841851,100.6864728
3110014005,โรงเรียนฤทธิยะวรรณาลัย,171/3503 ซอยท่าดินแดง 3 ถนนพหลโยธิน แขวงคลองถนน เขตสายไหม กรุงเทพมหานคร 10220,1042,สายไหม,โรงเรียนขนาดใหญ่  (จำนวนนักเรียนตั้งแต่ 801 คนขึ้นไป),0 2531 4608,0 2152 6265,www.rittiyaschool.com,4593,127,213,13.91371072,100.6250439
3110014006,โรงเรียนประชานุกูล (ขำสนิทอนุเคราะห์),ถนนพหลโยธิน 54/1 แยก 8-7 แขวงสายไหม เขตสายไหม กทม.,1042,สายไหม,โรงเรียนขนาดใหญ่  (จำนวนนักเรียนตั้งแต่ 801 คนขึ้นไป),0 2990 5149,-,facebook.com/โรงเรียนประชานุกูล-ขำสนิทอนุเคราะห์-145726965537209/,365,12,18,13.91897034,100.6359998
3110014007,โรงเรียนพรพระร่วงประสิทธิ์,110 หมู่ 6 แขวงออเงิน เขตสายไหม,1042,สายไหม,โรงเรียนขนาดกลาง  (จำนวนนักเรียนตั้งแต่ 401-800 คน),0 2519 8827,0 2519 8827,facebook.com/pornpraraung,290,13,18,13.88507911,100.6621578
3110014008,โรงเรียนวัดราษฎร์นิยมธรรม (พิบูลสงคราม),41 หมู่ 4 ซอย 52 ถนนพหลโยธิน แขวงคลองถนน เขตสายไหม กทม 10220,1042,สายไหม,โรงเรียนขนาดใหญ่  (จำนวนนักเรียนตั้งแต่ 801 คนขึ้นไป),0 2521 0501,-,facebook.com/โรงเรียนวัดราษฎร์นิยมธรรมพิบูลสงคราม-139083376170239/,917,32,52,13.88593487,100.6249704
3110014009,โรงเรียนซอยแอนเนกซ์ (กาญจนาภิเษก 2),745 ม.6 ซ.พหลโยธิน 58 ถ.พหลโยธิน แขวงสายไหม เขตสายไหม,1042,สายไหม,โรงเรียนขนาดใหญ่  (จำนวนนักเรียนตั้งแต่ 801 คนขึ้นไป),0 2523-8976,0 2519 8976 ต่อ 115,www.annexschool.com/,928,33,48,13.93542022,100.63879
3110014101,โรงเรียนสุเหร่าทับช้างคลองบน,79 หมู่ 16 หมู่บ้านนักกีฬาแหลมทอง ถนนกท-กรีฑา แขวงสะพานสูง เขตสะพานสูง กทม 10250,1044,สะพานสูง,โรงเรียนขนาดเล็ก  (จำนวนนักเรียนตั้งแต่ 1-400 คน),0 2368 2116,-,facebook.com/people/โรงเรียน-สุเหร่าทับช้างคลองบน/100002985020368,320,12,16,13.74364763,100.6996293
3110011203,โรงเรียนวัดลาดบัวขาว,170 / 7 แขวงสะพานสูง เขตสะพานสูง กรุงเทพมหานคร 10250,1044,สะพานสูง,โรงเรียนขนาดกลาง  (จำนวนนักเรียนตั้งแต่ 401-800 คน),0 2373 8744,-,https://wlbk.wordpress.com/,432,16,24,13.75834775,100.6965268
3110014103,โรงเรียนสมโภชกรุงอนุสรณ์ (200 ปี),1 ถนนกรุงเทพกรีฑา เขต สะพานสูง กรุงเทพ 10250,1044,สะพานสูง,โรงเรียนขนาดใหญ่  (จำนวนนักเรียนตั้งแต่ 801 คนขึ้นไป),0 2368 2652,0 2368 2652,www.spk200.ac.th/,1165,37,55,13.74030865,100.6922823
3110024104,โรงเรียนสุเหร่าซีรอ (ราษฎร์สามัคคี),25/2 หมู่ 8 ถนนราษฎร์พัฒนา แขวงสะพานสูง เขตสะพานสูง กทม 10240,1044,สะพานสูง,โรงเรียนขนาดใหญ่  (จำนวนนักเรียนตั้งแต่ 801 คนขึ้นไป),0 2171 6353,0 2171 6353,www.suraoseraw.ac.th,786,28,35,13.76915144,100.6948477
3110014105,โรงเรียนสุเหร่าลาดบัวขาว,63/1 หมู่ 9 ถนนราษฎร์พัฒนา แขวงสะพานสูง เขตสะพานสูง กทม 10240,1044,สะพานสูง,โรงเรียนขนาดกลาง  (จำนวนนักเรียนตั้งแต่ 401-800 คน),0 2184 7787,-,facebook.com/people/โรงเรียนสุเหร่าลาดบัวขาว-กรุงเทพมหานคร/100002816560279,547,19,26,13.76987212,100.7134769
3110024106,โรงเรียนสามแยกคลองหลอแหล,19/1 หมู่ 7 ถนนราษฎร์พัฒนา แขวงสะพานสูง เขตสะพานสูง กทม 10240,1044,สะพานสูง,โรงเรียนขนาดกลาง  (จำนวนนักเรียนตั้งแต่ 401-800 คน),0 2917 0105,-,facebook.com/sarmyaklorela,487,17,23,13.78034841,100.70167
3110014201,โรงเรียนจินดาบำรุง,37 ซ.คู้บอน 13 ถ.เสรีไทย แขวงคันนายาว เขตคันนายาว,1043,คันนายาว,โรงเรียนขนาดใหญ่  (จำนวนนักเรียนตั้งแต่ 801 คนขึ้นไป),0 2510 5423,-,facebook.com/JindaBamrungSchool/,1003,36,51,13.84852583,100.6596035
3110014202,โรงเรียนคันนายาว (ธารินเจริญสงเคราะห์),37 ซอยเสรีไทย 50 แยก 3 ถ.เสรีไทย แขวงคันนายาว เขตคันนายาว กรุงเทพมหานคร 10230,1043,คันนายาว,โรงเรียนขนาดใหญ่  (จำนวนนักเรียนตั้งแต่ 801 คนขึ้นไป),0 2517 0728,0 2517 0728,www.kny.ac.th/mainpage,925,37,47,13.79322139,100.6948363
3110014301,โรงเรียนสุเหร่าลาดพร้าว,568 ซ.สหการประมูล ถ.ประชาอุทิศ แขวงวังทองหลาง เขตวังทองหลาง กรุงเทพมหานคร 10310,1045,วังทองหลาง,โรงเรียนขนาดเล็ก  (จำนวนนักเรียนตั้งแต่ 1-400 คน),0 2530 9774,0 2530 9774,http://suraoladprowschool.com/,127,8,12,13.77157772,100.5941312
3110014302,โรงเรียนสุเหร่าดอนสะแก,87 หมู่ 9 ซอยลาดพร้าว 96 แขวงพลับพลา เขตวังทองหลาง กรุงเทพมหานคร,1045,วังทองหลาง,โรงเรียนขนาดกลาง  (จำนวนนักเรียนตั้งแต่ 401-800 คน),0 2514 1716,0 2514 1716,http://203.155.220.242/suraodonsakae/home.html,261,10,19,13.78076752,100.6126065
3110014303,โรงเรียนวัดสามัคคีธรรม,51/1 หมู่ 12 ถ.ลาดพร้าว 64 เขตวังทองหลาง,1045,วังทองหลาง,โรงเรียนขนาดกลาง  (จำนวนนักเรียนตั้งแต่ 401-800 คน),0 2514 2807,-,facebook.com/โรงเรียนวัดสามัคคีธรรม-หนู-บุตรอุปถัมภ์-1222259954456959/,452,18,26,13.78418555,100.5999507
3110014401,โรงเรียนกลางคลองสอง (พร ดีเจริญ),3 ซ.พระยาสุเรนทร์ 40 แขวงสามวาตะวันตก เขตคลองสามวา กทม.10510,1046,คลองสามวา,โรงเรียนขนาดกลาง  (จำนวนนักเรียนตั้งแต่ 401-800 คน),0 2175 3122,0 2175 3122,www.kk2school.com/,333,11,21,13.86200215,100.6991733
3110024402,โรงเรียนบางชัน (ปลื้มวิทยานุสรณ์),89 ถนน รามอินทรา 109 แขวงบางชัน เขตคลองสามวา กทม.,1046,คลองสามวา,โรงเรียนขนาดใหญ่  (จำนวนนักเรียนตั้งแต่ 801 คนขึ้นไป),0 2517 0380,0 2517 7475,www.bangchan.ac.th/,3191,97,149,13.81788594,100.6977153
3110014403,โรงเรียนบ้านแบนชะโด,45 แขวงทรายกองดินใต้ เขตคลองสามวา กรุงเทพมหานคร 10510,1046,คลองสามวา,โรงเรียนขนาดเล็ก  (จำนวนนักเรียนตั้งแต่ 1-400 คน),0 2906 1319,0 2906 1319,http://school.bangkok.go.th/banbandchado/,150,8,11,13.8764865,100.7835397
3110014404,โรงเรียนบ้านหนองระแหง (ชมแสงประชานุกูล),12 หมู่ที่ 10 ถนนจตุโชติ แขวงสามวาตะวันตก เขตคลองสามวา กรุงเทพมหานคร,1046,คลองสามวา,โรงเรียนขนาดกลาง  (จำนวนนักเรียนตั้งแต่ 401-800 คน),0 2569 2119,0 2569 2135,http://bannongrahang.wixsite.com/bannongrahang/about,253,8,10,13.90130649,100.690679
3110014405,โรงเรียนประชาราษฎร์อุปถัมภ์วิทยา,1051 ถ.พระยาสุเรนทร์ บางชัน คลองสามวา กรุงเทพฯ 10510,1046,คลองสามวา,โรงเรียนขนาดใหญ่  (จำนวนนักเรียนตั้งแต่ 801 คนขึ้นไป),0 2175 3070,0 2919 1248,www.pracharach.ac.th/,1134,40,59,13.84406644,100.6957221
3110024406,โรงเรียนวัดคู้บอน (วัฒนานันท์อุทิศ),59 ซอย คู้บอน 35 แขวงบางชัน เขตคลองสามวา กรุงเทพมหานคร 10510,1046,คลองสามวา,โรงเรียนขนาดใหญ่  (จำนวนนักเรียนตั้งแต่ 801 คนขึ้นไป),0 2510 4699,0 2510 4699,www.kubon.ac.th/,1746,53,83,13.85421797,100.6732148
3110014407,โรงเรียนวัดบัวแก้ว,2 ซอยนิมิตรใหม่ 19 ถนนนิมิตรใหม่ แขวงทรายกองดิน เขตคลองสามวา,1046,คลองสามวา,โรงเรียนขนาดใหญ่  (จำนวนนักเรียนตั้งแต่ 801 คนขึ้นไป),0 2543 7305,-,www.bmaschool.net/watbuakaew/,694,30,41,13.85082191,100.7313667
3110014408,โรงเรียนวัดแป้นทอง (สามวาวิทยา),209 ซอยหทัยราษฏร์ 39 ถนนหทัยราษฎร์ แขวงสามวาตะวันตก เขตคลองสามวา กรุงเทพมหานคร 10510,1046,คลองสามวา,โรงเรียนขนาดใหญ่  (จำนวนนักเรียนตั้งแต่ 801 คนขึ้นไป),0 2915 4279,-,www.bmaschool.net/watpanthong/,1089,31,49,13.88564434,100.708625
3110014409,โรงเรียนวัดพระยาสุเรนทร์ (บุญมีอนุกูล),167 ถ.พระยาสุเรนทร์ แขวงสามวาตะวันตก เขตคลองสามวา กรุงเทพ 10510,1046,คลองสามวา,โรงเรียนขนาดกลาง  (จำนวนนักเรียนตั้งแต่ 401-800 คน),0 2914 0176,-,www.watprayasuren.ac.th/,883,28,42,13.87390429,100.6863542
3110014410,โรงเรียนวัดลำกระดาน,39 ซอยนิมิตรใหม่ 66 ถนนนิมิตรใหม่ แขวงสามวาตะวันตก เขตคลองสามวา,1046,คลองสามวา,โรงเรียนขนาดกลาง  (จำนวนนักเรียนตั้งแต่ 401-800 คน),0 2569 1054,-,www.bmaschool.net/watlamkadan/,412,16,27,13.91748602,100.75331
3110014411,โรงเรียนวัดศรีสุก (แย้มเยื้อนอุปถัมภ์),1400 ถนนไมตรีจิต แขวงสามวาตะวันออกเขตคลองสามวา กรุงเทพมหานคร 10510,1046,คลองสามวา,โรงเรียนขนาดเล็ก  (จำนวนนักเรียนตั้งแต่ 1-400 คน),0 2988 6143,-,www.iiiblog.com/watsrisukschool/index.html,324,10,16,13.91862555,100.7917457
3110014412,โรงเรียนวัดสุขใจ,11 แขวงทรายกองดินใต้ เขตคลองสามวา กรุงเทพมหานคร 10510,1046,คลองสามวา,โรงเรียนขนาดเล็ก  (จำนวนนักเรียนตั้งแต่ 1-400 คน),0 2906 1632,-,www.watsukjai.ac.th/,178,8,10,13.87188467,100.773791
3110014413,โรงเรียนวัดสุทธิสะอาด,140 ถ.นิมิตรใหม่ แขวงสามวาตะวันออก เขตคลองสามวา กรุงเทพมหานคร 10510,1046,คลองสามวา,โรงเรียนขนาดใหญ่  (จำนวนนักเรียนตั้งแต่ 801 คนขึ้นไป),0 2915 6511,-,http://watsuttisa-ard.ac.th/mainpage,690,24,39,13.87746144,100.7321748
3110014414,โรงเรียนสุเหร่าเกาะขุนเณร,35 ถนนประชาร่วมใจ แขวงทรายกองดินใต้ เขตคลองสามวา กทม 10510,1046,คลองสามวา,โรงเรียนขนาดเล็ก  (จำนวนนักเรียนตั้งแต่ 1-400 คน),0 2543 7042,-,facebook.com/suraokohkhunnen/,123,8,8,13.85534667,100.7859498
3110014415,โรงเรียนสุเหร่าคลองสี่,555 ถนนไมตรีจิต แขวงสามวาตะวันออก เขตคลองสามวา กทม 10510,1046,คลองสามวา,โรงเรียนขนาดเล็ก  (จำนวนนักเรียนตั้งแต่ 1-400 คน),0 2989 7244,-,www.bmaschool.net/suraoklongse/,179,8,11,13.91266451,100.7701413
3110014416,โรงเรียนสุเหร่าคลองหนึ่ง (มานะราษฎร์บำรุง),607 ถนน สุเหร่าคลองหนึ่ง แขวงบางชัน เขตคลองสามวา,1046,คลองสามวา,โรงเรียนขนาดใหญ่  (จำนวนนักเรียนตั้งแต่ 801 คนขึ้นไป),0 2175 3076,-,facebook.com/suraoklong1/,803,32,39,13.84240881,100.710538
3110014417,โรงเรียนสุเหร่าสามวา,1/1 หมู่ 1 ซอย นิมิตใหม่ 57 แขวง สามวาตะวันตก เขต คลองสามวา,1046,คลองสามวา,โรงเรียนขนาดกลาง  (จำนวนนักเรียนตั้งแต่ 401-800 คน),-,-,facebook.com/โรงเรียนสุเหร่าสามวา-209495739116494/,487,16,26,13.90650368,100.7280882
3110014418,โรงเรียนสุเหร่าแสนแสบ,95 ถนนประชาร่วมใจ แขวงทรายกองดินใต้ เขตคลองสามวา กรุงเทพมหานคร 10510,1046,คลองสามวา,โรงเรียนขนาดใหญ่  (จำนวนนักเรียนตั้งแต่ 801 คนขึ้นไป),0 2543 7322,0 2543 7322,www.suraosansaeb.ac.th/,678,22,38,13.82564275,100.7514641
3110014501,โรงเรียนวัดธาตุทอง (เรือนเขียวสะอาด),1325 ถ.สุขุมวิท แขวงพระโขนง เขตวัฒนา,1039,วัฒนา,โรงเรียนขนาดใหญ่  (จำนวนนักเรียนตั้งแต่ 801 คนขึ้นไป),-,-,-,923,30,44,13.71966032,100.5866516
3110024503,โรงเรียนสุเหร่าบ้านดอน,84 แขวงคลองตันเหนือ เขตวัฒนา กรุงเทพมหานคร 10110,1039,วัฒนา,โรงเรียนขนาดกลาง  (จำนวนนักเรียนตั้งแต่ 401-800 คน),0 2392 0530,0 2392 0530,www.suraobandon.ac.th/,173,11,17,13.74314893,100.5802351
3110024502,โรงเรียนวิจิตรวิทยา,170 ซอยเอกมัย 30 แขวงคลองคันเหนือ คลองตันเหนือ เขตวัฒนา กรุงเทพมหานคร 10110,1039,วัฒนา,โรงเรียนขนาดใหญ่  (จำนวนนักเรียนตั้งแต่ 801 คนขึ้นไป),0 2392 1570,-,www.vijitwittaya.ac.th/,441,20,22,13.74019675,100.5937246
3110014504,โรงเรียนสุเหร่าบางมะเขือ (ปรีดี พนมยงค์ อนุสรณ์),ห้องสมุด ซอยปรีดีพนมยงค์ 4 ถนนสุขุมวิท 71 แขวงพระโขนงเหนือ เขตวัฒนา กทม 10110,1039,วัฒนา,โรงเรียนขนาดกลาง  (จำนวนนักเรียนตั้งแต่ 401-800 คน),0 2715 3705,-,facebook.com/suro.bmk,261,13,17,13.71539995,100.5969318
3110014505,โรงเรียนสุเหร่าสามอิน,780 ถนนปรีดีพนมยงค์ แขวงคลองตันเหนือ เขตวัฒนา กรุงเทพมหานคร 10110,1039,วัฒนา,โรงเรียนขนาดกลาง  (จำนวนนักเรียนตั้งแต่ 401-800 คน),0 2392 1571,-,www.suraosam-in.com/,508,17,27,13.72791473,100.5962028
3110014506,โรงเรียนวัดภาษี,33/4 ซอยเอกมัย 23 ถนนสุขุมวิท แขวงคลองตันเหนือ เขตวัฒนา กทม 10110,1039,วัฒนา,โรงเรียนขนาดกลาง  (จำนวนนักเรียนตั้งแต่ 401-800 คน),0 2392 5534,-,www.oocities.org/watpasee/,387,16,20,13.74171136,100.5887324
3110014507,โรงเรียนแจ่มจันทร์,4/44 ซอยแจ่มจันทร์ ถนนเอกมัย 21 แขวงคลองตันเหนือ เขตวัฒนา กทม 10110,1039,วัฒนา,โรงเรียนขนาดกลาง  (จำนวนนักเรียนตั้งแต่ 401-800 คน),0 2392 0553,-,https://sites.google.com/site/chamchanschool/prawati-rongreiyn-1,253,13,17,13.73916888,100.5877167
3110014508,โรงเรียนสวัสดีวิทยา,35/10 แขวงคลองเตยเหนือ เขตวัฒนา กทม. 10110,1039,วัฒนา,โรงเรียนขนาดกลาง  (จำนวนนักเรียนตั้งแต่ 401-800 คน),0 2261 1913,0 2261 1913,http://swd3510.com/,599,22,26,13.73980307,100.5662781
3110014601,โรงเรียนบางแค (เนื่องสังวาลย์อนุสรณ์),1087 ซอยเพชรเกษม 51 แขวงหลักสอง เขตบางแค กรุงเทพมหานคร 10160,1040,บางแค,โรงเรียนขนาดใหญ่  (จำนวนนักเรียนตั้งแต่ 801 คนขึ้นไป),0 2413 1682,-,www.bangkhae-nsw.ac.th/,568,22,31,13.70728044,100.4004812
3110024602,โรงเรียนวัดบุณยประดิษฐ์,526 ซอย 11 ถนนพุทธมณฑลสาย 2 แขวงบางไผ่ เขตบางแค กรุงเทพ 10160,1040,บางแค,โรงเรียนขนาดใหญ่  (จำนวนนักเรียนตั้งแต่ 801 คนขึ้นไป),0 2413 2937,0 2413 2937,www.boonyapradit.com/,730,27,40,13.73039836,100.3887175
3110024603,โรงเรียนคลองหนองใหญ่,1508 ซอยกาญจนาภิเษก 008 ถนนกาญจนาภิเษก แขวงบางแค เขตบางแค กรุงเทพมหานคร 10160,1040,บางแค,โรงเรียนขนาดใหญ่  (จำนวนนักเรียนตั้งแต่ 801 คนขึ้นไป),0 2413 2939,-,www.bangkok.go.th/klongnongyai,1204,38,62,13.68979093,100.4175091
3110014604,โรงเรียนเพชรเกษม (จตุรงค์สงครามอนุสรณ์),53 ซอย 65 ถนนเพชรเกษม แขวงหลักสอง เขตบางแค กทม 10160,1040,บางแค,โรงเรียนขนาดกลาง  (จำนวนนักเรียนตั้งแต่ 401-800 คน),0 2421 1134,-,www.pkschool.ac.th/,454,18,27,13.7044497,100.3846539
3110014605,โรงเรียนวัดศาลาแดง,4 หมู่ 6 ถนนบางแวก แขวงบางไผ่ เขตบางแค กทม 10160,1040,บางแค,โรงเรียนขนาดกลาง  (จำนวนนักเรียนตั้งแต่ 401-800 คน),0 2421 0681,-,facebook.com/โรงเรียนวัดศาลาแดง-สำนักงานเขตบางแค-Watsaladaeng-School-1558073461076623/,666,23,36,13.74932773,100.3545939
3110014606,โรงเรียนบางไผ่ (บ้านนายพันแก้วขาว),9 หมู่ 10 แขวงบางไผ่ เขตบางแค กรุงเทพมหานคร 10160,1040,บางแค,โรงเรียนขนาดเล็ก  (จำนวนนักเรียนตั้งแต่ 1-400 คน),0 2410 3455,0 2410 3455,http://school.bangkok.go.th/bangphi/,117,8,13,13.74070986,100.4036109
3110014607,โรงเรียนบางเชือกหนัง (พูนบำเพ็ญอนุสรณ์),หมู่ 7 ซอยวัฒนเสวี ถนนบางแวก แขวงบางไผ่ เขตบางแค กทม 10160,1040,บางแค,โรงเรียนขนาดกลาง  (จำนวนนักเรียนตั้งแต่ 401-800 คน),0 2448 2526,-,facebook.com/BangcheuknangSchool/,302,12,20,13.75137412,100.3897196
3110014608,โรงเรียนวัดพรหมสุวรรณสามัคคี,31 ซอยอัสสัมชัญ 25 ถนนเพชรเกษม แขวงบางไผ่ เขตบางแค กทม 10160,1040,บางแค,โรงเรียนขนาดใหญ่  (จำนวนนักเรียนตั้งแต่ 801 คนขึ้นไป),0 2421 0015,0 2421 5996,facebook.com/โรงเรียนวัดพรหมสุวรรณสามัคคี-668589536554796/,694,23,36,13.72966602,100.3676856
3110014609,โรงเรียนบางแคเหนือ,21 ซอย 76/1 ถนนเพชรเกษม แขวงบางแคเหนือ เขตบางแค กทม 10160,1040,บางแค,โรงเรียนขนาดใหญ่  (จำนวนนักเรียนตั้งแต่ 801 คนขึ้นไป),0 2413 0027,-,facebook.com/people/กิจกรรม-โรงเรียนบางแคเหนือ/100002575464116,606,27,38,13.71151992,100.4132197
3110014610,โรงเรียนวัดม่วง,847 หมู่2 ซ.เพชรเกษม63 ถ.เพชรเกษม แขวงหลักสอง เขตบางแค กรุงเทพมหานคร 10160,1040,บางแค,โรงเรียนขนาดใหญ่  (จำนวนนักเรียนตั้งแต่ 801 คนขึ้นไป),0 2413 1490,-,http://watmuangschool.blogspot.com/,887,32,46,13.69360006,100.3930315
3110024611,โรงเรียนวัดราษฎร์บำรุง (งามศิริวิทยาคาร),205 ถ.เพชรเกษม 69 แขวงหลักสอง เขตบางแค กรุงเทพ,1040,บางแค,โรงเรียนขนาดใหญ่  (จำนวนนักเรียนตั้งแต่ 801 คนขึ้นไป),0 2421 0166,0 2421 0166,www.wrbschool.com/,1021,36,55,13.70145895,100.3795419
3110014612,โรงเรียนหมู่บ้านเศรษฐกิจ (พุ่มประดับราษฎรสามัคคี),51 ถนนทางเข้าหมู่บ้านเศรษฐกิจ แขวงบางแคเหนือ เขตบางแค กทม 10160,1040,บางแค,โรงเรียนขนาดใหญ่  (จำนวนนักเรียนตั้งแต่ 801 คนขึ้นไป),0 2421 0110,0 2421 9295,facebook.com/โรงเรียนหมู่บ้านเศรษฐกิจ-พุ่มประดับราษฎร์สามัคคี-1010424352419905/,986,33,47,13.7153353,100.3746484
3110014701,โรงเรียนวัดบางนาใน,200 ซอยวัดบางนาใน ถ.สุขุมวิท แขวงบางนา เขตบางนา กรุงเทพ 10260,1047,บางนา,โรงเรียนขนาดใหญ่  (จำนวนนักเรียนตั้งแต่ 801 คนขึ้นไป),0 2393 1646,-,www.nanai.ac.th/,531,22,33,13.67117006,100.6041855
3110014702,โรงเรียนวัดบางนานอก,16/1 ถ.สรรพาวุธ แขวงบางนา เขตบางนา กรุงเทพ 10260,1047,บางนา,โรงเรียนขนาดกลาง  (จำนวนนักเรียนตั้งแต่ 401-800 คน),0 2173 4985,0 2173 4985,www.watbangnanokschool.ac.th/,226,8,17,13.67624608,100.5879596
3110014703,โรงเรียนผ่องพลอยอนุสรณ์,17 ซอยลาซาล 55 ถ.สุขุมวิท 105 แขวงบางนา เขตบางนา กรุงเทพมหานคร 10260,1047,บางนา,โรงเรียนขนาดใหญ่  (จำนวนนักเรียนตั้งแต่ 801 คนขึ้นไป),0 2393 4062,0 2393 4062,www.pongployanusorn.com/,1056,36,58,13.6614296,100.6299641
3110024704,โรงเรียนรุ่งเรืองอุปถัมภ์,122 ซอย 103/1-2 ถนนสุขุมวิท แขวงบางนา เขตบางนา กรุงเทพมหานคร 10270,1047,บางนา,โรงเรียนขนาดใหญ่  (จำนวนนักเรียนตั้งแต่ 801 คนขึ้นไป),0 2393 0709,-,www.rung-bn.com/,762,22,35,13.67703366,100.6115742
3110014705,โรงเรียนอำนวยกนกศิริอนุสรณ์,1007/7 หมู่บ้านพึ่งทรัพย์ ซอยพึ่งทรัพย์ ถนนอุดมสุข แขวงบางนา เขตบางนา กทม 10260,1047,บางนา,โรงเรียนขนาดกลาง  (จำนวนนักเรียนตั้งแต่ 401-800 คน),0 2383 8821,-,facebook.com/amnauykanok,524,22,29,13.67526685,100.6191514
3110014706,โรงเรียนศรีเอี่ยมอนุสรณ์,11 ซอย บางนา-ตราด 33 แขวงบางนา เขตบางนา กรุงเทพมหานคร์ 10260,1047,บางนา,โรงเรียนขนาดใหญ่  (จำนวนนักเรียนตั้งแต่ 801 คนขึ้นไป),0 2397 3579,0 2397 3579,www.srieam.com/,2041,59,97,13.66774694,100.6437896
3110024707,โรงเรียนเพี้ยนพินอนุสรณ์,595 ซอยจ่าโสด ถนนสุขุมวิท แขวงบางนา เขตบางนา กทม 10260,1047,บางนา,โรงเรียนขนาดใหญ่  (จำนวนนักเรียนตั้งแต่ 801 คนขึ้นไป),0 2393 5966,-,http://school.bangkok.go.th/pianpin/,858,33,43,13.6644675,100.5979007
3110024801,โรงเรียนบ้านนายเหรียญ,18 หมู่ 11 ซอย 3 ถนนบางบอน แขวงบางบอน เขตบางบอน กทม 10150,1050,บางบอน,โรงเรียนขนาดใหญ่  (จำนวนนักเรียนตั้งแต่ 801 คนขึ้นไป),0 2445 5415,0 2445 5937,facebook.com/bannairian,710,27,38,13.66887852,100.3780394
3110014802,โรงเรียนบ้านนายผล (แม้นสุวรรณอุปถัมภ์),36 ถนนบางบอน 5 ซอย 3 แขวงบางบอน เขตบางบอน กรุงเทพมหานคร 10150,1050,บางบอน,โรงเรียนขนาดกลาง  (จำนวนนักเรียนตั้งแต่ 401-800 คน),0 2450 3664,-,www.bannaipol.org/new/index.php,447,16,23,13.64326109,100.35639
3110012801,โรงเรียนวัดอาวุธวิกสิตาราม,139 ซอย 72 ถนนจรัญสนิทวงศ์ แขวงบางพลัด เขตบางพลัด กทม 10700,1025,บางพลัด,โรงเรียนขนาดเล็ก  (จำนวนนักเรียนตั้งแต่ 1-400 คน),0 2424 1249,-,http://school.bangkok.go.th/watawut/,92,8,11,13.79035421,100.5062942
3110012802,โรงเรียนวัดพระยาศิริไอยสวรรค์,482/12 ซอยอรุณอมรินทร์ 36 แขวงบางยี่ขัน เขตบางพลัด กรุงเทพมหานคร 10700,1025,บางพลัด,โรงเรียนขนาดเล็ก  (จำนวนนักเรียนตั้งแต่ 1-400 คน),0 2424 0417,0 2424 0417,http://schoolweb.eduzones.com/prayasiriaisawan/,72,8,10,13.76901957,100.4932194
3110012803,โรงเรียนวัดเปาโรหิตย์,396 ซ.จรัญสนิทวงศ์ 62 แขวงบางยี่ขัน เขตบางพลัด กทม. 10700,1025,บางพลัด,โรงเรียนขนาดกลาง  (จำนวนนักเรียนตั้งแต่ 401-800 คน),0 2424 1374,0 2424 1374,http://school.bangkok.go.th/paorohit/,157,8,11,13.78017171,100.4951215
3110012804,โรงเรียนวัดเทพากร (เลี่ยมมาตุทิศ),583 ซ.จรัญสนิทวงศ์ 68 แขวงบางพลัด เขตบางพลัด,1025,บางพลัด,โรงเรียนขนาดเล็ก  (จำนวนนักเรียนตั้งแต่ 1-400 คน),0 2424 4089,-,www.tpk.ac.th/,79,8,10,13.78648972,100.5026254
3110012805,โรงเรียนวัดฉัตรแก้วจงกลณี,110 ถนนจรัญสนิทวงศ์ 94 แขวงบางอ้อ เขตบางพลัด กทม 10700,1025,บางพลัด,โรงเรียนขนาดเล็ก  (จำนวนนักเรียนตั้งแต่ 1-400 คน),0 2424 3321,-,http://203.155.220.242/watchatkaew/,104,8,10,13.80188014,100.5135271
3110012806,โรงเรียนวัดวิมุตยาราม,13 ซ.จรัญสนิทวงศ์ 98 แขวงบางอ้อ เขตบางพลัด,1025,บางพลัด,โรงเรียนขนาดกลาง  (จำนวนนักเรียนตั้งแต่ 401-800 คน),0 2424 1025,-,http://schoolweb.eduzones.com/watwimuttayaram/,325,15,18,13.81086735,100.5146488
3110012807,โรงเรียนวัดบางพลัด (ป.สุวณ.โณ),821 ซอยจรัญสนิทวงศ์79 ถนนจรัญสนิทวงศ์ แขวงบางพลัด เขตบางพลัด กรุงเทพมหานคร 10700,1025,บางพลัด,โรงเรียนขนาดกลาง  (จำนวนนักเรียนตั้งแต่ 401-800 คน),0 2424 2460,0 2434 3268,http://wbpsoi79.wixsite.com/wbpschool79,363,16,25,13.79259867,100.4984562
3110012808,โรงเรียนวัดคฤหบดี,707 ซอยจรัลสนิทวงศ์ 44 แขวงบางยี่ขัน เขตบางพลัด กรุงเทพมหานคร 10700,1025,บางพลัด,โรงเรียนขนาดเล็ก  (จำนวนนักเรียนตั้งแต่ 1-400 คน),0 2424 4086,-,http://schoolweb.eduzones.com/karuhabodee/index.php?page=index,61,8,11,13.77235201,100.4967087
3110012809,โรงเรียนวัดรวก,1158 ซ.วัดรวก จรัญสนิทวงศ์ 57 แขวงบางบำหรุ เขตบางพลัด,1025,บางพลัด,โรงเรียนขนาดกลาง  (จำนวนนักเรียนตั้งแต่ 401-800 คน),0 2424 2461,-,http://watruakschool.esy.es/,321,19,21,13.78131215,100.4844281
3110012810,โรงเรียนวัดสามัคคีสุทธาวาส,510 ซ.จรัญสนิทวงศ์85 แขวงบางอ้อ เขตบางพลัด,1025,บางพลัด,โรงเรียนขนาดกลาง  (จำนวนนักเรียนตั้งแต่ 401-800 คน),0 2424 0200,0 2424 0200,https://watsamakkeesuttawasschool.wordpress.com/,219,8,14,13.79739327,100.5022882
3110012901,โรงเรียนวัดไก่เตี้ย (สวัสดิ์ประชานุกูล),23 ถนนชัยพฤกษ์ แขวงตลิ่งชัน เขตตลิ่งชัน,1019,ตลิ่งชัน,โรงเรียนขนาดเล็ก  (จำนวนนักเรียนตั้งแต่ 1-400 คน),0 2424 9516,0 2424 9516,facebook.com/WKTSchool/,52,8,10,13.78494222,100.4654633
3110012902,โรงเรียนวัดชัยพฤกษมาลา,484 ถ.ชัยฤกษ์ แขวงตลิ่งชัน เขตตลิ่งชัน กรุงเทพมหานคร 10170,1019,ตลิ่งชัน,โรงเรียนขนาดกลาง  (จำนวนนักเรียนตั้งแต่ 401-800 คน),0 2435 9511,-,https://sites.google.com/site/chaiyaphruckschool/,279,11,20,13.79423343,100.4672139
3110012903,โรงเรียนชุมทางตลิ่งชัน,291 หมู่ 11 ถ.สวนผัก แขวงตลิ่งชัน เขตตลิ่งชัน,1019,ตลิ่งชัน,โรงเรียนขนาดกลาง  (จำนวนนักเรียนตั้งแต่ 401-800 คน),0 2448 4912,-,facebook.com/chumthangschool/,165,9,16,13.79571884,100.4376532
3110022904,โรงเรียนฉิมพลี,218 แขวงฉิมพลี เขตตลิ่งชัน กรุงเทพมหานคร 10170,1019,ตลิ่งชัน,โรงเรียนขนาดใหญ่  (จำนวนนักเรียนตั้งแต่ 801 คนขึ้นไป),0 2448 4900,0 2884 4160,www.chimpleeschool.com/,722,27,39,13.79112508,100.4129852
3110012905,โรงเรียนวัดทอง (อุดมศิลปวิทยาคาร),23 หมู่ 10 ถนนบรมราชชนนี แขวงฉิมพลี เขตตลิ่งชัน กรุงเทพมหานคร 10170,1019,ตลิ่งชัน,โรงเรียนขนาดเล็ก  (จำนวนนักเรียนตั้งแต่ 1-400 คน),0 2412 9791,0 2887 6040,http://school.bangkok.go.th/watthongudom/school.html,36,8,10,13.77434986,100.4421745
3110012906,โรงเรียนวัดมะกอก (วิสุทธิวิทยาคาร),24 หมู่ 8 แขวงบางระมาด เขตตลิ่งชัน,1019,ตลิ่งชัน,โรงเรียนขนาดเล็ก  (จำนวนนักเรียนตั้งแต่ 1-400 คน),0 2887 8223,-,-,81,8,9,13.77553499,100.4280592
3110012907,โรงเรียนวัดโพธิ์ (ราษฎร์ผดุงผล),9/2 หมู่ 1 ถนนพุทธมณฑลสาย 1 แขวงบางระมาด เขตตลิ่งชัน,1019,ตลิ่งชัน,โรงเรียนขนาดกลาง  (จำนวนนักเรียนตั้งแต่ 401-800 คน),0 2448 6113,0 2448 6113,www.watphoschool.com/,523,20,25,13.76938676,100.4267178
3110012908,โรงเรียนวัดอินทราวาส,6 หมู่ 22 แขวงบางระมาด เขตตลิ่งชัน,1019,ตลิ่งชัน,โรงเรียนขนาดกลาง  (จำนวนนักเรียนตั้งแต่ 401-800 คน),0 2418 4076,-,http://watinsc.com/,433,15,22,13.75921538,100.4332499
3110012909,โรงเรียนวัดปากน้ำฝั่งเหนือ,942/2 แขวงคลองชักพระ เขตตลิ่งชัน,1019,ตลิ่งชัน,โรงเรียนขนาดกลาง  (จำนวนนักเรียนตั้งแต่ 401-800 คน),0 2410 7805,0 2410 7805,www.watpaknamfangnuaschool.ac.th/,214,9,14,13.74402202,100.4590684
3110012911,โรงเรียนวัดเกาะ,168 ม.9 แขวงบางเชือกหนัง เขตตลิ่งชัน กรุงเทพฯ 10170,1019,ตลิ่งชัน,โรงเรียนขนาดเล็ก  (จำนวนนักเรียนตั้งแต่ 1-400 คน),0 2410 7806,0 2410 7806,http://203.155.220.242/watkoh/,56,8,10,13.74261969,100.4562116
3110012912,โรงเรียนวัดพิกุล,2 หมู่ 5 แขวงบางเชือกหนัง เขตตลิ่งชัน,1019,ตลิ่งชัน,โรงเรียนขนาดเล็ก  (จำนวนนักเรียนตั้งแต่ 1-400 คน),0 2410 1638,0 2410 1638,http://school.bangkok.go.th/watpikul/,54,8,10,13.74140014,100.4329196
3110012913,โรงเรียนวัดกระโจมทอง,14 หมู่ 6 ถ.จรัญสนิทวงศ์ 35 แขวงบางพรม เขตตลิ่งชัน,1019,ตลิ่งชัน,โรงเรียนขนาดเล็ก  (จำนวนนักเรียนตั้งแต่ 1-400 คน),0 2410 7938,0 2410 7938,facebook.com/profile.php?id=100003958075936&lst=1779355949%3A100003958075936%3A1488955732,112,8,12,13.74770538,100.4429822
3110012910,โรงเรียนวัดประสาท,30 หมู่ 1 ถนนจรัญสนิทวงศ์ แขวงบางพรม เขตตลิ่งชัน กทม 10170,1019,ตลิ่งชัน,โรงเรียนขนาดเล็ก  (จำนวนนักเรียนตั้งแต่ 1-400 คน),0 2418 4149,-,facebook.com/watprasat,83,8,9,13.75822561,100.4494646
3110012914,โรงเรียนวัดรัชฎาธิฐาน,692 แขวงคลองชักพระ เขตตลิ่งชัน,1019,ตลิ่งชัน,โรงเรียนขนาดกลาง  (จำนวนนักเรียนตั้งแต่ 401-800 คน),0 2412 4020,0 2412 4020,www.ratchadatitan.com/,354,16,20,13.759051,100.4535943
3110012915,โรงเรียนวัดตลิ่งชัน (ปิ่นทองสัณฐาคาร),300 ถ.ชักพระ แขวงคลองชักพระ เขตตลิ่งชัน,1019,ตลิ่งชัน,โรงเรียนขนาดเล็ก  (จำนวนนักเรียนตั้งแต่ 1-400 คน),0 2424 7044,0 2424 7044,http://schoolweb.eduzones.com/WattalingchanSchool/,179,8,13,13.77902726,100.456853
3110012916,โรงเรียนวัดช่างเหล็ก,430/1 ซอยวัดช่างเหล็ก ถ.ฉิมพลี แขวงคลองชักพระ เขตตลิ่งชัน,1019,ตลิ่งชัน,โรงเรียนขนาดเล็ก  (จำนวนนักเรียนตั้งแต่ 1-400 คน),0 2424 7045,-,facebook.com/watchanglek.bkk/,102,8,11,13.77413881,100.4534655
3110013001,โรงเรียนวัดราชสิทธาราม,94 ซ.อิสรภาพ 21 ถ.อิสรภาพ แขวงวัดท่าพระ เขตบางกอกใหญ่ กทม.,1016,บางกอกใหญ่,โรงเรียนขนาดใหญ่  (จำนวนนักเรียนตั้งแต่ 801 คนขึ้นไป),0 2466 1253,-,facebook.com/rachasittharam,299,13,19,13.73579488,100.4850196
3110013002,โรงเรียนวัดท่าพระ,30 ซอยจรัญสนิทวงศ์ 4 ถนนจรัญสนิทวงศ์ เขตบางกอกใหญ่,1016,บางกอกใหญ่,โรงเรียนขนาดใหญ่  (จำนวนนักเรียนตั้งแต่ 801 คนขึ้นไป),0 2467 0595,-,facebook.com/watthapraschool.page/,427,20,28,13.73347258,100.4728085
3110013003,โรงเรียนวัดประดู่ฉิมพลี,1162 ริมคลองบางกอกใหญ่ ซ.เพชรเกษม 15 แขวงวัดท่าพระ แขวงวัดท่าพระ เขตบางกอกใหญ่ กรุงเทพมหานคร 10600,1016,บางกอกใหญ่,โรงเรียนขนาดกลาง  (จำนวนนักเรียนตั้งแต่ 401-800 คน),0 2467 1972,-,facebook.com/pradoochimplee,152,8,12,13.72411154,100.4691163
3110013004,โรงเรียนวัดใหม่พิเรนทร์,611 ถนนอิสรภาพ แขวงวัดอรุณ เขตบางกอกใหญ่,1016,บางกอกใหญ่,โรงเรียนขนาดเล็ก  (จำนวนนักเรียนตั้งแต่ 1-400 คน),0 2465 0585,0 2891 1277,facebook.com/watmaipirenschool/,66,8,10,13.74117183,100.4822701
3110013005,โรงเรียนวัดดีดวด,116/13 ซอยจรัญฯ 12 (ซอยวัดดีดวด) แขวงวัดท่าพระ เขตบางกอกใหญ่,1016,บางกอกใหญ่,โรงเรียนขนาดเล็ก  (จำนวนนักเรียนตั้งแต่ 1-400 คน),0 2411 2113,-,facebook.com/watdeeduadschool,66,9,10,13.74123452,100.4748266
3110013006,โรงเรียนวัดนาคกลาง,761 ซอยอิสรภาพ 42 (ซอยทวีธาภิเศก) แขวงวัดอรุณเขตบางกอกใหญ่,1016,บางกอกใหญ่,โรงเรียนขนาดเล็ก  (จำนวนนักเรียนตั้งแต่ 1-400 คน),0 2465 0583,-,facebook.com/people/โรงเรียนวัดนาคกลาง-สำนักงานเขตบางกอกใหญ่/100004329363684,55,8,10,13.74592511,100.48402
3110014803,โรงเรียนบ้านนายสี,18 เอกชัย ซอย 100 แขวงบางบอน เขตบางบอน กรุงเทพฯ,1050,บางบอน,โรงเรียนขนาดกลาง  (จำนวนนักเรียนตั้งแต่ 401-800 คน),0 2415 7301,-,www.bannaisee.net/newweb/index.php,414,16,25,13.66379802,100.3990407
3110014804,โรงเรียน วัดบางบอน (พิมพ์ จันแต้อุปถัมภ์),33/1 หมู่ 3 ซอย 119 ถนนเอกชัย แขวงบางบอน เขตบางบอน กทม 10150,1050,บางบอน,โรงเรียนขนาดใหญ่  (จำนวนนักเรียนตั้งแต่ 801 คนขึ้นไป),0 2415 2382,-,facebook.com/hrusystem,920,38,53,13.64203713,100.3800095
3110014805,โรงเรียนพรหมราษฎร์รังสรรค์,711 ถนนพรหมราษฎร์ แขวงบางบอน เขตบางบอน กรุงเทพมหานคร 10150,1050,บางบอน,โรงเรียนขนาดกลาง  (จำนวนนักเรียนตั้งแต่ 401-800 คน),0 2453 0591,0 2453 0306,http://promrachschool.org/index.php,572,22,27,13.64221957,100.3958909
3110014806,โรงเรียนสถานีพรมแดน,133 ถ.พรมแดน แขวงบางบอน เขตบางบอน กทม. 10150,1050,บางบอน,โรงเรียนขนาดกลาง  (จำนวนนักเรียนตั้งแต่ 401-800 คน),0 2453 0013,0 2453 0013,http://schoolweb.eduzones.com/promdan/,269,9,13,13.62421673,100.3804976
3110014807,โรงเรียนวัดนินสุขาราม,6 ซอย 3 ถนนกาญจนาภิเษก แขวงบางบอน เขตบางบอน กทม 10150,1050,บางบอน,โรงเรียนขนาดกลาง  (จำนวนนักเรียนตั้งแต่ 401-800 คน),0 2415 1709,-,facebook.com/people/โรงเรียนวัดนินสุขาราม-สำนักงานเขตบางบอน/100003542633698,174,8,15,13.6742525,100.4046492
3110024808,โรงเรียนพระยามนธาตุราชศรีพิจิตร์,89 หมู่ 7 ซอยมนธาตุราชศรีพิจิตร์ ถนนบางขุนเทียน แขวงบางบอน เขตบางบอน กรุงเทพมหานคร 10150,1050,บางบอน,โรงเรียนขนาดใหญ่  (จำนวนนักเรียนตั้งแต่ 801 คนขึ้นไป),0 2415 3589,-,www.prayamon.ac.th/,3127,97,147,13.66846585,100.4254426
3110014901,โรงเรียนคลองต้นไทร (สุขล้อมอุทิศ),87/2 ถนนพุทธมณฑลสาย 2 แขวงศาลาธรรมสพน์ เขตทวีวัฒนา กทม 10170,1048,ทวีวัฒนา,โรงเรียนขนาดเล็ก  (จำนวนนักเรียนตั้งแต่ 1-400 คน),0 2448 1539,-,facebook.com/คลองต้นไทร-สุขล้อมอุทิศ-1397307437195438/,245,10,15,13.78350762,100.3838328
3110014902,โรงเรียนคลองทวีวัฒนา (ทองน่วมอนุสรณ์),155 หมู่ 1 แขวงทวีวัฒนา เขตทวีวัฒนา,1048,ทวีวัฒนา,โรงเรียนขนาดใหญ่  (จำนวนนักเรียนตั้งแต่ 801 คนขึ้นไป),0 2441 9449,-,facebook.com/klongtawee/,946,30,48,13.7555633,100.3516611
3110014903,โรงเรียนคลองบางพรหม,53 หมู่ 12 แขวงศาลาธรรมสพน์ เขตทวีวัฒนา,1048,ทวีวัฒนา,โรงเรียนขนาดกลาง  (จำนวนนักเรียนตั้งแต่ 401-800 คน),0 2441 3157,-,facebook.com/people/โรงเรียนคลองบางพรหม-สำนักงานเขตทวีวัฒนา/100004579050402,293,10,15,13.76863174,100.368624
3110014904,โรงเรียนคลองมหาสวัสดิ์,28/3 หมู่ 4 ถนนแขวงศาลาธรรมสพน์ แขวงศาลาธรรมสพน์ เขตทวีวัฒนา กทม 10170,1048,ทวีวัฒนา,โรงเรียนขนาดกลาง  (จำนวนนักเรียนตั้งแต่ 401-800 คน),0 2447 7430,-,facebook.com/klongmahasawat,244,11,19,13.80268454,100.3523576
3110024905,โรงเรียนวัดปุรณาวาส,25 ซอย ศาลาธรรมสพน์ แขวง ศาลาธรรมสพน์ เขต ทวีวัฒนา กรุงเทพมหานคร 10170,1048,ทวีวัฒนา,โรงเรียนขนาดใหญ่  (จำนวนนักเรียนตั้งแต่ 801 คนขึ้นไป),0 2441 5160,-,-,1606,47,85,13.80152172,100.3352201
3110014906,โรงเรียนตั้งพิรุฬธรรม,9/3 หมู่ 10 ซอยบรมราชชนนี 121 ถนนบรมราชชนนี แขวงศาลาธรรมสพน์ เขตทวีวัฒนา,1048,ทวีวัฒนา,โรงเรียนขนาดใหญ่  (จำนวนนักเรียนตั้งแต่ 801 คนขึ้นไป),0 2441 3074,0 2441 3074,www.ttschool.ac.th/,1922,48,86,13.77942393,100.3442787
3110015001,โรงเรียนนาหลวง,60/1 หมู่ 1 ถนนพุทธบูชา แขวงบางมด เขตทุ่งครุ กทม 10140,1049,ทุ่งครุ,โรงเรียนขนาดใหญ่  (จำนวนนักเรียนตั้งแต่ 801 คนขึ้นไป),0 2427 5630,0 2427 5630,www.nlsc.ac.th/,3472,120,155,13.64768985,100.4950504
3110015002,โรงเรียนสามัคคีบำรุง,75 หมู่ 4 ถ.ประชาอุทิศ แขวงบางมด เขตทุ่งครุ,1049,ทุ่งครุ,โรงเรียนขนาดใหญ่  (จำนวนนักเรียนตั้งแต่ 801 คนขึ้นไป),-,-,facebook.com/smbr.ac.th/,597,18,28,13.64571094,100.5113522
3110015003,โรงเรียนบางมด (ตันเปาว์วิทยาคาร),11 ซอยพุทธบูชา 26/3 แขวงบางมด เขตทุ่งครุ กทม. 10140,1049,ทุ่งครุ,โรงเรียนขนาดกลาง  (จำนวนนักเรียนตั้งแต่ 401-800 คน),0 2426 3899,-,facebook.com/bangmodtanpao/,491,16,24,13.65450077,100.4716699
3110015004,โรงเรียนราษฎร์บูรณะ,67/1 ถ.ประชาอุทิศ แขวงทุ่งครุ เขตทุ่งครุ กรุงเทพมหานคร 10140,1049,ทุ่งครุ,โรงเรียนขนาดใหญ่  (จำนวนนักเรียนตั้งแต่ 801 คนขึ้นไป),0 2426 0220,0 2871 9004,facebook.com/โรงเรียนราษฎร์บูรณะฯ-679406648770818/,978,33,47,13.63477771,100.5031583
3110015005,โรงเรียนรางราชพฤกษ์ (นุชมีอุทิศ),224 ซอยประชาอุทิศ 72 ถนนประชาอุทิศ แขวงทุ่งครุ เขต ทุ่งครุ กรุงเทพมหานคร 10140,1049,ทุ่งครุ,โรงเรียนขนาดเล็ก  (จำนวนนักเรียนตั้งแต่ 1-400 คน),0 2426 2311,0 2426 2311,http://schoolweb.eduzones.com/rrun72/content.php?view=20150716132434ueI8rRI,100,8,11,13.63226188,100.482568
3110015006,โรงเรียนวัดทุ่งครุ (พึ่งสายอนุสรณ์),467 ประชาอุทิศ แขวงทุ่งครุ เขตทุ่งครุ กรุงเทพมหานคร 10140,1049,ทุ่งครุ,โรงเรียนขนาดใหญ่  (จำนวนนักเรียนตั้งแต่ 801 คนขึ้นไป),0 2463 7295,-,http://thungkruschool.com/mainpage,2204,69,99,13.6192304,100.5120064
3110015007,โรงเรียนคลองรางจาก,93 ซอย 79 ถนนประชาอุทิศ แขวงทุ่งครุ เขตทุ่งครุ กทม 10140,1049,ทุ่งครุ,โรงเรียนขนาดเล็ก  (จำนวนนักเรียนตั้งแต่ 1-400 คน),0 2463 2328,-,facebook.com/people/โรงเรียนคลองรางจาก-เขตทุ่งครุ-กทม/100004249084770,131,8,11,13.6357197,100.5147547
3110015008,โรงเรียนชูสินทองประดิษฐ์อนุสรณ์,63 ซอย 27 ถนนประชาอุทิศ แขวงบางมด เขตทุ่งครุ กทม 10140,1049,ทุ่งครุ,โรงเรียนขนาดกลาง  (จำนวนนักเรียนตั้งแต่ 401-800 คน),0 2428 3010,-,-,591,21,32,13.65714777,100.5095486
3110020901,โรงเรียนกิ่งเพชร,323/113 ซอยกิ่งเพชร ถนนเพชรบุรี แขวงถนนเพชรบุรี เขตราชเทวี กทม 10400,1037,ราชเทวี,โรงเรียนขนาดใหญ่  (จำนวนนักเรียนตั้งแต่ 801 คนขึ้นไป),0 2215 3657,-,facebook.com/kingpetchschool/,422,20,18,13.75153354,100.5263064
3110010903,โรงเรียนวัดพระยายัง,49 พระราม 6 ตัดใหม่ แขวงถนนเพชรบุรี เขตราชเทวี กรุงเทพมหานคร 10400,1037,ราชเทวี,โรงเรียนขนาดกลาง  (จำนวนนักเรียนตั้งแต่ 401-800 คน),0 2215 3647,-,facebook.com/โรงเรียนวัดพระยายัง-275655819122992/,175,8,13,13.75232872,100.5219654
3110010902,โรงเรียนวัดดิสหงสาราม,9 ถนนเพชรบุรีตัดใหม่ ซอยโรงเรียนมักกะสัน แขวงมักกะสัน เขตราชเทวี กรุงเทพมหานคร 10400,1037,ราชเทวี,โรงเรียนขนาดกลาง  (จำนวนนักเรียนตั้งแต่ 401-800 คน),0 2252 9934,-,-,261,12,18,13.74871696,100.5517825
3110010904,โรงเรียนวัดทัศนารุณสุนทริการาม,51 ซอยวัดตะพาน ถนนราชปรารภ แขวงมักกะสัน เขตราชเทวี กรุงเทพมหานคร,1037,ราชเทวี,โรงเรียนขนาดกลาง  (จำนวนนักเรียนตั้งแต่ 401-800 คน),0 2245 3937,-,facebook.com/watthasanaroon/,282,12,16,13.76103507,100.5435223
3110010701,โรงเรียนวัดประดู่ธรรมาธิปัตย์,104 ถ.ประชาราษฎร์ แขวงบางซื่อ เขตบางซื่อ,1029,บางซื่อ,โรงเรียนขนาดกลาง  (จำนวนนักเรียนตั้งแต่ 401-800 คน),0 2912 5209,-,facebook.com/pradoobangsue/,268,10,14,13.80126576,100.5237158
3110010702,โรงเรียนวัดบางโพโอมาวาส,101 ถนนประชาราษฎร์ 1 แขวงบางซื่อ เขตบางซื่อ,1029,บางซื่อ,โรงเรียนขนาดใหญ่  (จำนวนนักเรียนตั้งแต่ 801 คนขึ้นไป),0 2585 0627,-,www.bangpho.ac.th/,446,20,26,13.80885645,100.5197138
3110010703,โรงเรียนวัดสร้อยทอง,1333 แขวงบางซื่อ เขตบางซื่อ กรุงเทพมหานคร 10800,1029,บางซื่อ,โรงเรียนขนาดใหญ่  (จำนวนนักเรียนตั้งแต่ 801 คนขึ้นไป),0 2585 6463,-,facebook.com/schoolwatsoithong,465,16,27,13.81345189,100.5176902
3110010704,โรงเรียนวัดทองสุทธาราม,276 ซอย 56 ถนนกรุมเทพ-นนท์ แขวงวงศ์สว่าง เขตบางซื่อ กทม 10800,1029,บางซื่อ,โรงเรียนขนาดกลาง  (จำนวนนักเรียนตั้งแต่ 401-800 คน),0 2556 0364,0 2585 6824,facebook.com/โรงเรียนวัดทองสุทธาราม-364915680373456/,334,11,23,13.83286533,100.5298046
3110020705,โรงเรียนวัดมัชฌันติการาม,203 ถ.วงศ์สว่าง 11 แขวงบางซื่อ เขตบางซื่อ,1029,บางซื่อ,โรงเรียนขนาดกลาง  (จำนวนนักเรียนตั้งแต่ 401-800 คน),0 2585 2201,-,www.matchanschool.ac.th/,357,17,21,13.82206886,100.5172835
3110010706,โรงเรียนวัดเลียบราษฎร์บำรุง,1451/1 ซอย 43 ถนนกท-นนท์ แขวงวงศ์สว่าง เขตบางซื่อ กทม 10800,1029,บางซื่อ,โรงเรียนขนาดใหญ่  (จำนวนนักเรียนตั้งแต่ 801 คนขึ้นไป),0 2585 7077,-,facebook.com/watlabschool,184,8,13,13.82872411,100.5212857
3110010707,โรงเรียนวัดประชาศรัทธาธรรม,102 ถนนวงศ์สว่าง แขวงบางซื่อ เขตบางซื่อ กทม 10800,1029,บางซื่อ,โรงเรียนขนาดเล็ก  (จำนวนนักเรียนตั้งแต่ 1-400 คน),0 2585 1678,-,facebook.com/watsaohinschool/,166,8,13,13.81850488,100.5191474
3110011101,โรงเรียนวัดดอน,25/1 ถ.เจริญกรุง แขวงยานนาวา เขตสาทร,1028,สาทร,โรงเรียนขนาดกลาง  (จำนวนนักเรียนตั้งแต่ 401-800 คน),0 2212 8776,-,facebook.com/WatdonSchoolSathon,353,15,20,13.71378875,100.5169366
3110011102,โรงเรียนวัดยานนาวา,40 ถนน เจริญกรุง แขวง ยานนาวา เขต สาทร กรุงเทพมหานคร 10120,1028,สาทร,โรงเรียนขนาดกลาง  (จำนวนนักเรียนตั้งแต่ 401-800 คน),0 2211 9482,-,www.watyannawaschool.com/,344,14,18,13.71770991,100.5128289
3110011201,โรงเรียนวัดไผ่เงินโชตนาราม,880 ซอยวัดไผ่เงิน ถนนจันทน์ แขวงบางโคล่ เขตบางคอแหลม กทม 10120,1031,บางคอแหลม,โรงเรียนขนาดใหญ่  (จำนวนนักเรียนตั้งแต่ 801 คนขึ้นไป),0 2211 3966,-,facebook.com/phaingern880/,727,30,39,13.70127428,100.5234667
3110011202,โรงเรียนวัดราชสิงขร,29 ซอยยาสูบ ถนนเจริญกรุง แขวงวัดพระยาไกร เขตบางคอแหลม กทม 10120,1031,บางคอแหลม,โรงเรียนขนาดใหญ่  (จำนวนนักเรียนตั้งแต่ 801 คนขึ้นไป),0 2289 0611,-,http://rsk.ac.th/,956,30,49,13.70593924,100.5041644
3110014102,โรงเรียนวัดลาดบัวขาว,504 ซอย 80 ถนนเจริญกรุง แขวงบางคอแหลม เขตบางคอแหลม กทม 10120,1031,บางคอแหลม,โรงเรียนขนาดกลาง  (จำนวนนักเรียนตั้งแต่ 401-800 คน),0 2289 0664,-,http://school.bangkok.go.th/watladbuakhaw/,155,8,12,13.7007931,100.4971606
3110011204,โรงเรียนวัดไทร,633 ซอยเจริญราษฎร์ 7 ถนนเจริญราษฎร์ แขวงบางโคล่ เขตบางคอแหลม กรุงเทพ,1031,บางคอแหลม,โรงเรียนขนาดกลาง  (จำนวนนักเรียนตั้งแต่ 401-800 คน),0 2289 0400,-,facebook.com/wsbma/,546,24,26,13.69023353,100.5181815
3110011205,โรงเรียนวัดจันทร์นอก,101/1 ซอยพระรามที่ 3 ซอย 12 ถนนพระรามที่ 3 แขวงบางโคล่ เขตบางคอแหลม กรุงเทพ,1031,บางคอแหลม,โรงเรียนขนาดเล็ก  (จำนวนนักเรียนตั้งแต่ 1-400 คน),0 2289 0148,-,facebook.com/jannokschool,108,8,11,13.69012701,100.5015584
3110011206,โรงเรียนวัดบางโคล่นอก,3742/2 ซอยพระรามที่ 3 ซอย 22 ถนนพระรามที่ 3 แขวงบางโคล่ เขตบางคอแหลม กรุงเทพ,1031,บางคอแหลม,โรงเรียนขนาดเล็ก  (จำนวนนักเรียนตั้งแต่ 1-400 คน),0 2289 0090,-,http://schoolweb.eduzones.com/watbangkhlonok/index.php?page=index,46,8,10,13.68729719,100.5120334
3110011207,โรงเรียนวัดจันทร์ใน,449 ซอยเจริญกรุง 107 ถนนเจริญกรุง แขวงบางโคล่ เขตบางคอแหลม กรุงเทพ,1031,บางคอแหลม,โรงเรียนขนาดกลาง  (จำนวนนักเรียนตั้งแต่ 401-800 คน),0 2289 3733,-,http://schoolweb.eduzones.com/Watjannai/content.php?view=20130923105257P7zfzM6,337,16,19,13.69530153,100.5038841
3110011401,โรงเรียนวัดสะพาน,1730 ถนนทางรถไฟเก่าสายปากน้ำ แขวงพระโขนง เขตคลองเตย กรุงเทพฯ 10260,1033,คลองเตย,โรงเรียนขนาดกลาง  (จำนวนนักเรียนตั้งแต่ 401-800 คน),0 2311 5120,0 2311 5120,www.watsaphansc.com/,218,10,12,13.70411035,100.5884794
3110011402,โรงเรียนวัดคลองเตย,386 ถนนสุนทรโกษา แขวงคลองเตย เขตคลองเตย กทม 10110,1033,คลองเตย,โรงเรียนขนาดเล็ก  (จำนวนนักเรียนตั้งแต่ 1-400 คน),0 2249 3412,-,facebook.com/watklongtoei,201,8,12,13.71011723,100.5607464
3110011403,โรงเรียนศูนย์รวมน้ำใจ,133/1 ถนนอาจณรงค์ แขวงคลองเตย เขตคลองเตย กรุงเทพมหานคร 10110,1033,คลองเตย,โรงเรียนขนาดใหญ่  (จำนวนนักเรียนตั้งแต่ 801 คนขึ้นไป),0 2249 6773,0 2249 2189,www.snj.ac.th/index2/,700,26,38,13.7130348,100.5696415
3110021404,โรงเรียนชุมชนหมู่บ้านพัฒนา,2/109 ล็อค 6 ถนนอาจณรงค์ แขวงคลองเตย เขตคลองเตย กรุงเทพมหานคร 10110,1033,คลองเตย,โรงเรียนขนาดใหญ่  (จำนวนนักเรียนตั้งแต่ 801 คนขึ้นไป),0 2249 4499,0 2249 4499,www.ccmbpn.ac.th/,488,18,26,13.71104157,100.57463
3110011501,โรงเรียนวัดตะกล่ำ,35 ถนนเฉลิมพระเกียรติ ร.9 ที่ 22 ซอย 22 แขวงหนองบอน เขตประเวศ กรุงเทพ 10250,1032,ประเวศ,โรงเรียนขนาดใหญ่  (จำนวนนักเรียนตั้งแต่ 801 คนขึ้นไป),0 2398 4172,-,www.watthaklam.ac.th/index1.htm,1277,37,59,13.67665343,100.6649735
3110011502,โรงเรียนแก่นทองอุปถัมภ์,18 ซอยแก่นทอง ถนนศรีนครินทร์ แขวงหนองบอน เขตประเวศ กทม 10250,1032,ประเวศ,โรงเรียนขนาดกลาง  (จำนวนนักเรียนตั้งแต่ 401-800 คน),0 2398 6947,-,facebook.com/kaenthongupathumschool/,676,23,34,13.69623226,100.6513738
3110011503,โรงเรียนวัดกระทุ่มเสือปลา,21 ซอยอ่อนนุช 67 ถนนอ่อนนุช-ลาดกระบัง แขวงประเวศ เขตประเวศ กรุงเทพ 10250,1032,ประเวศ,โรงเรียนขนาดใหญ่  (จำนวนนักเรียนตั้งแต่ 801 คนขึ้นไป),0 2328 7274,0 2328 7274,http://watkratumsuepla-school.com/Watkratumsuepla-school.html,973,36,56,13.72268009,100.6887813
3110011504,โรงเรียนคลองมะขามเทศ,26 ซอย 44 ถนนเฉลิมพระเกียรติ ร 9 แขวงดอกไม้ เขตประเวศ กทม 10250,1032,ประเวศ,โรงเรียนขนาดเล็ก  (จำนวนนักเรียนตั้งแต่ 1-400 คน),0 2328 0132,-,facebook.com/kmt.prawet,142,8,12,13.69739443,100.6761389
3110011505,โรงเรียนสุเหร่าจรเข้ขบ (กุลางกรูอุปถัมภ์),26 ถนนเฉลิมพระเกียรติ ร 9 ซอย 68 แขวงประเวศ เขตประเวศ กทม.,1032,ประเวศ,โรงเรียนขนาดใหญ่  (จำนวนนักเรียนตั้งแต่ 801 คนขึ้นไป),0 2328 8208,-,http://203.155.220.242/suraochorakhe/,777,26,37,13.70710812,100.6924973
3110011506,โรงเรียนสุเหร่าทางควาย,365 ซอยอ่อนนุช 59 แขวงประเวศ เขตประเวศ กรุงเทพ,1032,ประเวศ,โรงเรียนขนาดกลาง  (จำนวนนักเรียนตั้งแต่ 401-800 คน),0 2321 4704,0 2321 4704,www.suraothangkwai.igetweb.com,396,16,22,13.72451941,100.6735207
3110011507,โรงเรียนสุเหร่าทับช้าง,274 ถนนมอเตอร์เวย์ แขวงประเวศ เขตประเวศ กทม 10250,1032,ประเวศ,โรงเรียนขนาดเล็ก  (จำนวนนักเรียนตั้งแต่ 1-400 คน),0 2368 2054,-,facebook.com/โรงเรียนสุเหร่าทับช้าง-สำนักงานเขตประเวศ-0-2368-2054-683770361706870/,157,8,12,13.73354394,100.6888775
3110011508,โรงเรียนสุเหร่าบึงหนองบอน,67 ซ.อ่อนนุช 70 ถ.อ่อนนุช-ลาดกระบัง แขวงประเวศ เขตประเวศ กรุงเทพ,1032,ประเวศ,โรงเรียนขนาดกลาง  (จำนวนนักเรียนตั้งแต่ 401-800 คน),0 2321 2604,0 2321 2604,www.bmaschool.net/srbb,349,16,20,13.71364871,100.6515879
3110011509,โรงเรียนสุเหร่าศาลาลอย,76/1 หมู่10 ซอยอ่อนนุช แขวงประเวศ เขตประเวศ กรุงเทพ 10250,1032,ประเวศ,โรงเรียนขนาดเล็ก  (จำนวนนักเรียนตั้งแต่ 1-400 คน),0 2321 3726,0 2321 3726,http://suraosalaloyschool.blogspot.com/,129,8,12,13.71050405,100.6676155
3110011510,โรงเรียนสุเหร่าบ้านม้า,174 ถนนกรุงเทพ-ชลบุรี แขวงประเวศ เขตประเวศ กทม 10250,1032,ประเวศ,โรงเรียนขนาดเล็ก  (จำนวนนักเรียนตั้งแต่ 1-400 คน),0 2368 2899,-,-,149,8,13,13.7357085,100.6709835
3110021511,โรงเรียนคลองปักหลัก,300 ซอย 30 ถนนเฉลิมพระเกียรติ ร 9 แขวงดอกไม้ เขตประเวศ กทม 10250,1032,ประเวศ,โรงเรียนขนาดใหญ่  (จำนวนนักเรียนตั้งแต่ 801 คนขึ้นไป),0 2329 1549,-,facebook.com/klongpaklak.klongpaklak,1512,45,74,13.68100945,100.6983561
3110011512,โรงเรียนงามมานะ (แผน - ทับอุทิศ),251 ถนนอ่อนนุช แขวงประเวศ เขตประเวศ,1032,ประเวศ,โรงเรียนขนาดกลาง  (จำนวนนักเรียนตั้งแต่ 401-800 คน),0 2321 3674,-,facebook.com/ngammanaschool/,355,19,19,13.71960982,100.661698
3110011513,โรงเรียนคชเผือกอนุสรณ์,22 ซอยเฉลิมพระเกียรติ 48 ถนนเฉลิมพระเกียรติ ร.9 แขวงดอกไม้ เขตประเวศ,1032,ประเวศ,โรงเรียนขนาดกลาง  (จำนวนนักเรียนตั้งแต่ 401-800 คน),0 2328 0160,-,www.kotchapuakanusorn.com/web/index.php,311,16,20,13.69252293,100.6800795
3110011514,โรงเรียนสุวิทย์เสรีอนุสรณ์,10/11 หมู่ 11 ซอยหมู่บ้านเสรีอ่อนนุช แขวงประเวศ เขตประเวศ,1032,ประเวศ,โรงเรียนขนาดใหญ่  (จำนวนนักเรียนตั้งแต่ 801 คนขึ้นไป),0 2321 3738,-,facebook.com/suwitseree.school/,983,32,51,13.70928594,100.6619304
3110011701,โรงเรียนวัดดอนเมือง (ทหารอากาศอุทิศ),1/4 หมู่ 10 ถนนเชิดวุฒากาศ แขวงดอนเมือง เขตดอนเมือง 10210,1036,ดอนเมือง,โรงเรียนขนาดใหญ่  (จำนวนนักเรียนตั้งแต่ 801 คนขึ้นไป),0 2566 1918,0 2566 1918,www.watdonmuangschool.ac.th/,1465,44,77,13.92148894,100.6010943
3110021704,โรงเรียนประชาอุทิศ (จันทาบอนุสรณ์),116 ถนนประชาอุทิศ ซอย 6 แขวงดอนเมือง เขตดอนเมือง กรุงเทพมหานคร 10210,1036,ดอนเมือง,โรงเรียนขนาดใหญ่  (จำนวนนักเรียนตั้งแต่ 801 คนขึ้นไป),0 2565 2525,0 2565 2525 ต่อ 101,www.prachautid.com,2511,84,124,13.92298406,100.5839295
3110021703,โรงเรียนวัดเวฬุวนาราม (สินทรัพย์อนุสรณ์),678 ถนนวัดเวฬุวนาราม แขวงดอนเมือง เขตดอนเมือง กรุงเทพมหานคร 10210,1036,ดอนเมือง,โรงเรียนขนาดใหญ่  (จำนวนนักเรียนตั้งแต่ 801 คนขึ้นไป),0 2573 4956,0 2983 3178,www.wwlschool.ac.th/,1456,48,51,13.91459361,100.5660871
3110011515,โรงเรียนอยู่เป็นสุขอนุสรณ์,13 ซ. สุภาพงษ์ 1 ถนนศรีนครินทร์ เขตประเวศ กรุงเทพมหานคร 10250,1032,ประเวศ,โรงเรียนขนาดใหญ่  (จำนวนนักเรียนตั้งแต่ 801 คนขึ้นไป),0 2330 8711,-,www.upensuk.com/,607,23,37,13.69122993,100.6383505
3110011705,โรงเรียนเปรมประชา (สายหยุด-เกษมสงเคราะห์),209 ซอย วิภาวดี 33 แขวงทุ่งสีกัน เขตดอนเมือง กรุงเทพมหานคร 10210,1036,ดอนเมือง,โรงเรียนขนาดกลาง  (จำนวนนักเรียนตั้งแต่ 401-800 คน),0 2536 2196,0 2536 2196,http://school.bangkok.go.th/prempracha/indexth.html,405,18,26,13.94770526,100.6060504
3110011706,โรงเรียนบำรุงรวิวรรณวิทยา (ทุ่งสีกัน),501 หมู่ 3 ถนนเดชะตุงคะ แขวงสีกัน เขตดอนเมือง กทม 10210,1036,ดอนเมือง,โรงเรียนขนาดใหญ่  (จำนวนนักเรียนตั้งแต่ 801 คนขึ้นไป),0 2929 2172,-,www.bumrungschool.com/,1080,38,51,13.93833004,100.5828773
3110011801,โรงเรียนวัดเสมียนนารี,32/6 ถ.กำแพงเพชร 6 แขวงลาดยาว เขตจตุจักร กรุงเทพมหานคร 10900,1030,จตุจักร,โรงเรียนขนาดใหญ่  (จำนวนนักเรียนตั้งแต่ 801 คนขึ้นไป),0 2589 4936,0 2589 4936,www.watsamiennareeschool.com/,473,20,31,13.84042716,100.5562833
3110011802,โรงเรียนวัดเทวสุนทร,1 หมู่ 19 ถ.วิภาวดีรังสิต แขวงลาดยาว เขตจตุจักร,1030,จตุจักร,โรงเรียนขนาดเล็ก  (จำนวนนักเรียนตั้งแต่ 1-400 คน),0 2589 6361,0 2589 6361,www.wtsschool.ac.th/,61,8,10,13.85389488,100.5620531
3110011803,โรงเรียนบ้านลาดพร้าว,148/16-18 ซอบลาดพร้าว 41 ถ.ลาดพร้าว แขวงจันทรเกษม เขตจตุจักร,1030,จตุจักร,โรงเรียนขนาดกลาง  (จำนวนนักเรียนตั้งแต่ 401-800 คน),0 2541 8512,-,http://banladprao.com/,334,14,20,13.80456595,100.5878067
3110011804,โรงเรียนรัตนโกสินทร์สมโภช (ราชทัณฑ์อุปถัมภ์),580 ซ.วัชรพล ถ.วัชรพล แขวงท่าแร้ง เขตบางเขน กรุงเทพมหานคร 10220,1030,จตุจักร,โรงเรียนขนาดใหญ่  (จำนวนนักเรียนตั้งแต่ 801 คนขึ้นไป),0 2948 0621,-,www.rsb.ac.th/,659,27,39,13.84691171,100.5486019
3110021805,โรงเรียนเสนานิคม,1242 ซอยเสนานิคม1 ถนนพหลโยธิน แขวงจันทรเกษม เขตจตุจักร กรุงเทพมหานคร 10900,1030,จตุจักร,โรงเรียนขนาดใหญ่  (จำนวนนักเรียนตั้งแต่ 801 คนขึ้นไป),0 2579 5543,-,www.senanikom.ac.th/,1033,35,59,13.83175178,100.5883609
3110011806,โรงเรียนประชานิเวศน์(ประถมศึกษา),ซ.10 ถนนเทศบาลรังรักษ์เหนือ แขวงลาดยาว เขตจตุจักร กรุงเทพฯ 10900,1030,จตุจักร,โรงเรียนขนาดใหญ่  (จำนวนนักเรียนตั้งแต่ 801 คนขึ้นไป),0 2588 4028,-,www.prachaniwet.ac.th/,1745,48,88,13.84371573,100.5465548
3110012001,โรงเรียนลอยสายอนุสรณ์,41 หมู่ 12 ซอยรามอินทรา 34 ถนนรามอินทรา แขวงลาดพร้าว เขตลาดพร้าว กรุงเทพ 10230,1038,ลาดพร้าว,โรงเรียนขนาดใหญ่  (จำนวนนักเรียนตั้งแต่ 801 คนขึ้นไป),0 2519 1222,0 2519 1222,www.loysaianusorn-school.com/,448,22,26,13.84032033,100.6324419
3110022002,โรงเรียนวัดลาดพร้าว,1 หมู่ 9 ถนนลาดพร้าว-วังหิน แขวงลาดพร้าว เขตลาดพร้าว กรุงเทพมหานคร 10230,1038,ลาดพร้าว,โรงเรียนขนาดใหญ่  (จำนวนนักเรียนตั้งแต่ 801 คนขึ้นไป),0 2513 2410,-,www.wlp.ac.th/,795,28,44,13.80314916,100.5902389
3110012006,โรงเรียนคลองทรงกระเทียม,92 ซอยนาคนิวาส 2 ถ.นาคนิวาส แขวงลาดพร้าว เขตลาดพร้าว กรุงเทพมหานคร 10230,1038,ลาดพร้าว,โรงเรียนขนาดใหญ่  (จำนวนนักเรียนตั้งแต่ 801 คนขึ้นไป),0 2530 1313,0 2530 1313,www.klongsong.com/,551,22,31,13.80031742,100.6128148
3110012004,โรงเรียนวัดลาดปลาเค้า,63/1 หมู่ 2 แขวงจรเข้บัว เขตลาดพร้าว,1038,ลาดพร้าว,โรงเรียนขนาดใหญ่  (จำนวนนักเรียนตั้งแต่ 801 คนขึ้นไป),0 2570 7245,0 2570 6667,www.watladplakao.com/,809,30,45,13.84738668,100.6040176
3110012003,โรงเรียนเทพวิทยา,37 หมู่ 11 ถ.พหลโยธิน 32 (เสนานิคม1) แขวงลาดพร้าว เขตลาดพร้าว กรุงเทพมหานคร 10230,1038,ลาดพร้าว,โรงเรียนขนาดกลาง  (จำนวนนักเรียนตั้งแต่ 401-800 คน),0 2570 5084,-,www.thepwittaya.ac.th/,928,29,45,13.83221421,100.5909264
3110012005,โรงเรียนเพชรถนอม (คลองเสือน้อย),43 ซอยสุคนธสวัสดิ์ 10 ถนนสุคนธสวัสดิ์ แขวงลาดพร้าว เขตลาดพร้าว กรุงเทพ 10230,1038,ลาดพร้าว,โรงเรียนขนาดใหญ่  (จำนวนนักเรียนตั้งแต่ 801 คนขึ้นไป),0 2570 9302,0 2570 9302 ต่อ 102,http://school.bangkok.go.th/pechthanom/,1506,46,77,13.82289543,100.6157542
3110012103,โรงเรียนคลองลำเจียก,33/4 ซอยนวลจันทร์ ถนนเกษตร-นวมินทร์ แขวงนวมินทร์ เขตบึงกุ่ม กทม 10230,1027,บึงกุ่ม,โรงเรียนขนาดกลาง  (จำนวนนักเรียนตั้งแต่ 401-800 คน),0 2508 0566,-,-,413,16,24,13.81835969,100.634592
3110012104,โรงเรียนวัดนวลจันทร์,43/4 ซ.รามอินทรา 40 แยก 37 ถนนรามอินทรา แขวงคลองกุ่ม เขตบึงกุ่ม,1027,บึงกุ่ม,โรงเรียนขนาดกลาง  (จำนวนนักเรียนตั้งแต่ 401-800 คน),0 2519 1010,-,www.watnuanchanschool.ac.th/,617,22,30,13.81834639,100.627072
3110012101,โรงเรียนวัดบางเตย,39/1 ซ.นวมินทร์62 ถ.นวมินทร์ แขวงคลองกุ่ม เขตบึงกุ่ม กรุงเทพมหานคร 10240,1027,บึงกุ่ม,โรงเรียนขนาดใหญ่  (จำนวนนักเรียนตั้งแต่ 801 คนขึ้นไป),0 2510 7983,0 2944 9137,www.watbangtoei.ac.th/,1280,43,65,13.8033842,100.649184
3110012102,โรงเรียนประภาสวิทยา,30/117 หมู่ 11 ซอยวัดสุวรรณประสิทธิ์ ถ.นวมินทร์ 42 แขวงคลองกุ่ม เขตบึงกุ่ม,1027,บึงกุ่ม,โรงเรียนขนาดกลาง  (จำนวนนักเรียนตั้งแต่ 401-800 คน),0 2138 6768,-,http://203.155.220.242/prapas/,486,19,26,13.80417272,100.6622766
3110012105,โรงเรียนวัดพิชัย,30/1 ม.1 แขวงคลองกุ่ม เขตบึงกุ่ม กรุงเทพมหานคร 10240,1027,บึงกุ่ม,โรงเรียนขนาดเล็ก  (จำนวนนักเรียนตั้งแต่ 1-400 คน),0 2377 6160,-,http://wpcs.ac.th/,182,8,11,13.77303202,100.6585792
3110022106,โรงเรียนคลองกุ่ม (เสรีไทย อนุสรณ์),106/4 หมู่ 4 ถ.เสรีไทย แขวงคลองกุ่ม เขตบึงกุ่ม,1027,บึงกุ่ม,โรงเรียนขนาดใหญ่  (จำนวนนักเรียนตั้งแต่ 801 คนขึ้นไป),0 2376 1139,-,facebook.com/klongkhumschool,1456,49,76,13.78593615,100.6737353
3110012108,โรงเรียนแย้มจาดวิชชานุสรณ์,39/359 ซอยนวมินทร์ 163 แขวงนวลจันทร์ เขตบึงกุ่ม กรุงเทพมหานคร 10230,1027,บึงกุ่ม,โรงเรียนขนาดใหญ่  (จำนวนนักเรียนตั้งแต่ 801 คนขึ้นไป),0 2510 0130,-,www.yamjard.ac.th/,1629,52,81,13.83260276,100.6524421
3110012201,โรงเรียนวัดประยุรวงค์,24/1 ถ.ประชาธิปก แขวงวัดกัลยาณ์ เขตธนบุรี,1015,ธนบุรี,โรงเรียนขนาดเล็ก  (จำนวนนักเรียนตั้งแต่ 1-400 คน),0 2466 2654,-,https://sites.google.com/site/prayurawongs/,134,8,11,13.73708393,100.4945982
3110012203,โรงเรียนวัดบุคคโล,349 ถ.เจริญนคร แขวงบุคคโล เขตธนบุรี,1015,ธนบุรี,โรงเรียนขนาดเล็ก  (จำนวนนักเรียนตั้งแต่ 1-400 คน),0 2468 0659,-,http://schoolweb.eduzones.com/BUKKALO/,116,8,11,13.70037629,100.4883379
3110012204,โรงเรียนวัดดาวคนอง,ถ.เจริญนคร แขวงบุคคโล เขตธนบุรี,1015,ธนบุรี,โรงเรียนขนาดเล็ก  (จำนวนนักเรียนตั้งแต่ 1-400 คน),0 2246 0654,-,http://school.bangkok.go.th/watdaokhanong/Contract.html,99,8,11,13.69632769,100.4881552
3110012205,โรงเรียนวัดกัลยาณมิตร,371/3 ถนนเทศบาลสาย1 แขวงวัดกัลยาณ์ เขตธนบุรี กรุงเทพมหานคร,1015,ธนบุรี,โรงเรียนขนาดเล็ก  (จำนวนนักเรียนตั้งแต่ 1-400 คน),0 2466 2655,0 2466 2655,http://watkallayanamit.co.nf/,64,8,10,13.74065008,100.490848
3110012202,โรงเรียนวัดขุนจันทร์,1174 ถนนเทอดไท 28 แขวงตลาดพลู เขตธนบุรี กรุงเทพมหานคร 10600,1015,ธนบุรี,โรงเรียนขนาดเล็ก  (จำนวนนักเรียนตั้งแต่ 1-400 คน),0 2466 3075,0 2466 3075,http://khunjansc.com/,81,8,10,13.71984313,100.4709297
3110012206,โรงเรียนวัดราชคฤห์,518 - 520 แขวงบางยี่เรือ ถ.เทอดไท แขวงบางยี่เรือ เขตธนบุรี,1015,ธนบุรี,โรงเรียนขนาดเล็ก  (จำนวนนักเรียนตั้งแต่ 1-400 คน),0 2466 0859,0 2466 0859,http://school.bangkok.go.th/watrajkrueh/Activities%20of%20the%20school.html,95,8,11,13.72270833,100.4800644
3110012207,โรงเรียนวัดประดิษฐาราม,33 ถ.อิสรภาพ แขวงหิรัญจี เขตธนบุรี,1015,ธนบุรี,โรงเรียนขนาดเล็ก  (จำนวนนักเรียนตั้งแต่ 1-400 คน),0 2457 0543,0 2457 0543,www.watchan.ac.th,142,8,12,13.7343968,100.4875167
3110012208,โรงเรียนวัดบางสะแกใน,1587 ถ.ริมทางรถไฟ แขวงตลาดพลู เขตธนบุรี,1015,ธนบุรี,โรงเรียนขนาดใหญ่  (จำนวนนักเรียนตั้งแต่ 801 คนขึ้นไป),0 2476 6260,-,http://sakaenaisc.net/sakaenai001.html,434,17,27,13.71155385,100.4754825
3110012209,โรงเรียนวัดเวฬุราชิณ,154/1 ถ.เทอดไท แขวงบางยี่เรือ เขตธนบุรี,1015,ธนบุรี,โรงเรียนขนาดกลาง  (จำนวนนักเรียนตั้งแต่ 401-800 คน),0 2466 0584,-,facebook.com/watwaerurachinschool,233,12,14,13.72624326,100.4860043
3110012210,โรงเรียนกันตทาราราม,37/59 ซอยรัชดาภิเษก 14 แขวงตลาดพลู เขตธนบุรี,1015,ธนบุรี,โรงเรียนขนาดเล็ก  (จำนวนนักเรียนตั้งแต่ 1-400 คน),0 2466 0390,-,https://sites.google.com/site/kantatararam/prawati-rongreiyn,136,8,12,13.71764743,100.4783499
3110012211,โรงเรียนวัดโพธินิมิตร,309 ถ.เทอดไท แขวงบางยี่เรือ เขตธนบุรี,1015,ธนบุรี,โรงเรียนขนาดกลาง  (จำนวนนักเรียนตั้งแต่ 401-800 คน),0 2466 3441,-,facebook.com/Watpotinimit-School-278323665567909/?ref=page_internal,313,14,20,13.72075497,100.4847215
3110012212,โรงเรียนวัดใหม่ยายนุ้ย,ถ.วุฒากาศ แขวงตลาดพลู เขตธนบุรี,1015,ธนบุรี,โรงเรียนขนาดเล็ก  (จำนวนนักเรียนตั้งแต่ 1-400 คน),0 2465 0424,-,http://schoolweb.eduzones.com/watmaiyainuy/content.php?view=20140211162534PAnTMj0,95,8,10,13.71202611,100.4690411
3110012213,โรงเรียนวัดกระจับพินิจ,300/1 ถ.สมเด็จพระเจ้าตากสิน 22 บุคคโล ธนบุรี กรุงเทพ10600,1015,ธนบุรี,โรงเรียนขนาดใหญ่  (จำนวนนักเรียนตั้งแต่ 801 คนขึ้นไป),0 2477 9158,0 2477 9158,http://school.bangkok.go.th/watkrajabpinit/,523,24,33,13.71488122,100.4859051
3110012214,โรงเรียนวัดราชวรินทร์,472 ถ.ตากสิน แขวงบุคคโล เขตธนบุรี,1015,ธนบุรี,โรงเรียนขนาดเล็ก  (จำนวนนักเรียนตั้งแต่ 1-400 คน),0 2438 8660,0 2438 8660,http://school.bangkok.go.th/watratjawarin/,86,8,10,13.70917313,100.4926001
3110012216,โรงเรียนวัดใหญ่ศรีสุพรรณ,98 ถ.อินทรพิทักษ์ แขวงหิรัญจี เขตธนบุรี,1015,ธนบุรี,โรงเรียนขนาดเล็ก  (จำนวนนักเรียนตั้งแต่ 1-400 คน),0 2465 8104,0 2465 8104,http://jpornpen1969.wixsite.com/5555,125,8,12,13.72901189,100.488583
3110012217,โรงเรียนวัดบางน้ำชน,24 ถนนเจริญนคร แขวงสำเหร่ เขตธนบุรี กรุงเทพมหานคร 10600,1015,ธนบุรี,โรงเรียนขนาดเล็ก  (จำนวนนักเรียนตั้งแต่ 1-400 คน),0 2468 4855,0 2640 1303,http://school.bangkok.go.th/watbangnamchon/,49,7,9,13.70409537,100.4907004
3110022301,โรงเรียนวัดเศวตฉัตร,8 ซอยเจริญนคร 25 แขวงบางลำภูล่าง เขตคลองสาน,1018,คลองสาน,โรงเรียนขนาดใหญ่  (จำนวนนักเรียนตั้งแต่ 801 คนขึ้นไป),0 2437 2327,0 2437 2327,www.watsaweat.ac.th,284,19,22,13.71312309,100.5060593
3110022302,โรงเรียนวัดสุทธาราม,403/1 ถ.เจริญนคร แขวงบางลำภูล่าง เขตคลองสาน,1018,คลองสาน,โรงเรียนขนาดใหญ่  (จำนวนนักเรียนตั้งแต่ 801 คนขึ้นไป),0 2438 8692,-,www.suttharam.org/web/index.php,773,24,37,13.71310939,100.4934201
3110022303,โรงเรียนวัดทองเพลง,135 ถ.เจริญนคร 14 แขวงคลองต้นไทร เขตคลองสาน,1018,คลองสาน,โรงเรียนขนาดใหญ่  (จำนวนนักเรียนตั้งแต่ 801 คนขึ้นไป),0 2438 2657,-,http://office2.bangkok.go.th/watthongplang,357,17,20,13.72447298,100.5007133
3110012304,โรงเรียนวัดทองธรรมชาติ,ถ.เชียงใหม่ แขวงคลองสาน เขตคลองสาน,1018,คลองสาน,โรงเรียนขนาดเล็ก  (จำนวนนักเรียนตั้งแต่ 1-400 คน),0 2437 9456,-,facebook.com/watthongthammachart/,60,8,11,13.73401987,100.5064423
3110012305,โรงเรียนวัดทองนพคุณ,4645 แขวงคลองสาน เขตคลองสาน,1018,คลองสาน,โรงเรียนขนาดเล็ก  (จำนวนนักเรียนตั้งแต่ 1-400 คน),0 2437 2040,-,facebook.com/noppakunschool,114,8,11,13.73312229,100.5083598
3110012306,โรงเรียนวัดพิชัยญาติ,32 ซ.สมเด็จเจ้าพระยา2 ถ.สมเด็จเจ้าพระยา แขวงสมเด็จเจ้าพระยา เขตคลองสาน กทม 10600,1018,คลองสาน,โรงเรียนขนาดเล็ก  (จำนวนนักเรียนตั้งแต่ 1-400 คน),0 2861 5425,-,www.watpichaiyatschool.ac.th/,166,8,10,13.73274733,100.4971968
3110012307,โรงเรียนวัดสุวรรณ,27 ถ.เจริญนคร แขวงคลองต้นไทร เขตคลองสาน,1018,คลองสาน,โรงเรียนขนาดกลาง  (จำนวนนักเรียนตั้งแต่ 401-800 คน),0 2437 5585,0 2437 5585,http://schoolweb.eduzones.com/suwansc/,450,19,27,13.7241964,100.5104941
3110012401,โรงเรียนวัดนิมมานรดี,841 ถ.เพชรเกษม แขวงบางหว้า เขตภาษีเจริญ,1022,ภาษีเจริญ,โรงเรียนขนาดใหญ่  (จำนวนนักเรียนตั้งแต่ 801 คนขึ้นไป),0 2413 1144,-,www.nimma.ac.th,1626,53,88,13.70932668,100.426789
3110012402,โรงเรียนวัดจันทร์ประดิษฐาราม,115 ถ.เพชรเกษม 48 แขวงบางด้วน เขตภาษีเจริญ,1022,ภาษีเจริญ,โรงเรียนขนาดใหญ่  (จำนวนนักเรียนตั้งแต่ 801 คนขึ้นไป),0 2457 0543,0 2457 0543,www.watchan.ac.th,1697,64,87,13.72105367,100.4403781
3110012403,โรงเรียนวัดอ่างแก้ว (จีบ ปานขำ),38/19 ถนนเทอดไท แขวงบางหว้า เขตภาษีเจริญ กทม.,1022,ภาษีเจริญ,โรงเรียนขนาดใหญ่  (จำนวนนักเรียนตั้งแต่ 801 คนขึ้นไป),0 2467 0514,-,www.angkaew.ac.th,672,22,41,13.7161879,100.4531451
3110012404,โรงเรียนวัดชัยฉิมพลี,40 ซอยบางแวก 69 แขวงบางแวก เขตภาษีเจริญ กทม.10160,1022,ภาษีเจริญ,โรงเรียนขนาดกลาง  (จำนวนนักเรียนตั้งแต่ 401-800 คน),0 2410 1662,0 2410 2396,www.chaichimplee.ac.th,332,15,19,13.73422022,100.4333383
3110012405,โรงเรียนวัดโคนอน,13 หมู่ 3-4 ถ.พัฒนาการ แขวงบางหว้า เขตภาษีเจริญ,1022,ภาษีเจริญ,โรงเรียนขนาดกลาง  (จำนวนนักเรียนตั้งแต่ 401-800 คน),0 2467 5573,-,facebook.com/watkononbkk,158,11,16,13.71282704,100.4543634
3110012406,โรงเรียนวัดมะพร้าวเตี้ย,12 หมู่ 4 ซอยวัดมะพร้าวเตี้ย ถนนบางแวก แขวงคลองขวาง เขตภาษีเจริญ กทม 10160,1022,ภาษีเจริญ,โรงเรียนขนาดกลาง  (จำนวนนักเรียนตั้งแต่ 401-800 คน),0 2410 1930,-,facebook.com/WatmapraotiaSchool,363,18,23,13.7439503,100.4202478
3110012407,โรงเรียนวัดโตนด,40/1 ถนนแขวงบางแวก แขวงบางแวก เขตภาษีเจริญ กทม 10160,1022,ภาษีเจริญ,โรงเรียนขนาดเล็ก  (จำนวนนักเรียนตั้งแต่ 1-400 คน),0 2467 3256,-,-,93,8,10,13.73630274,100.4528529
3110012408,โรงเรียนวัดตะล่อม,4 หมู่ 1 ถ.สายบางแวก แขวงบางแวก เขตภาษีเจริญ,1022,ภาษีเจริญ,โรงเรียนขนาดเล็ก  (จำนวนนักเรียนตั้งแต่ 1-400 คน),0 2410 1805,-,http://wattalom.tripod.com/,139,8,12,13.74141609,100.4286105
3110022409,โรงเรียนวัดกำแพง (เหรียญ ล้อมมานะนุกูล),43 หมู่ 10 ถนนสายบางแวก แขวงบางแวก เขตภาษีเจริญ กทม 10160,1022,ภาษีเจริญ,โรงเรียนขนาดกลาง  (จำนวนนักเรียนตั้งแต่ 401-800 คน),0 2410 4510,-,facebook.com/watkhampeang/,236,8,12,13.73937277,100.4457423
3110012410,โรงเรียนวัดทองศาลางาม,140 ซอยเพชรเกษม 20 แขวงปากคลองภาษีเจริญ เขตภาษีเจริญ กรุงเทพมหานคร 10160,1022,ภาษีเจริญ,โรงเรียนขนาดกลาง  (จำนวนนักเรียนตั้งแต่ 401-800 คน),0 2467 1516,-,http://school.bangkok.go.th/watthongsalangam,304,16,20,13.72861682,100.4639477
3110012411,โรงเรียนวัดวิจิตรการนิมิตร,1099 ถ.จรัญสนิทวงศ์ 13 แขวงคูหาสวรรค์ เขตภาษีเจริญ,1022,ภาษีเจริญ,โรงเรียนขนาดกลาง  (จำนวนนักเรียนตั้งแต่ 401-800 คน),0 2410 7739,-,http://schoolweb.eduzones.com/wijitkrannimitSchool/index.php?page=index,181,14,16,13.73992939,100.4602082
3110012412,โรงเรียนวัดประดู่ (พ่วงอุทิศ),163 ถ.เพชรเกษม 34 แขวงปากคลอง เขตภาษีเจริญ,1022,ภาษีเจริญ,โรงเรียนขนาดเล็ก  (จำนวนนักเรียนตั้งแต่ 1-400 คน),0 2467 1976,-,www.watpradoo.ac.th/,105,8,11,13.72233189,100.4567151
3110012413,โรงเรียนบางจาก (โกมลประเสริฐอุทิศ),59 ซอยเพชรเกษม 48 แยก4-7 ถ.เพชรเกษม แขวงบางจาก เขตภาษีเจริญ,1022,ภาษีเจริญ,โรงเรียนขนาดเล็ก  (จำนวนนักเรียนตั้งแต่ 1-400 คน),0 2457 3470,-,-,133,8,12,13.72688468,100.4464887
3110012215,โรงเรียนวัดบางสะแกนอก,154 ซอยเทอดไท 33 ถนนเทอดไท แขวงตลาดพลู เขตธนบุรี กรุงเทพมหานคร,1015,ธนบุรี,โรงเรียนขนาดเล็ก  (จำนวนนักเรียนตั้งแต่ 1-400 คน),0 2465 0350,-,www.bsnok.com,76,8,10,13.71582035,100.4755092
3110022502,โรงเรียนวัดหัวกระบือ,89 ซอยเทียนทะเล 19 ถนนบางขุนเทียน-ชายทะเล แขวงท่าข้าม เขตบางขุนเทียน,1021,บางขุนเทียน,โรงเรียนขนาดใหญ่  (จำนวนนักเรียนตั้งแต่ 801 คนขึ้นไป),0 2416 1166,-,www.bmaschool.net/wathuakrabue/first.html,994,30,50,13.61991959,100.449385
3110012503,โรงเรียนราชมนตรี (ปลื้ม - เชื่อมนุกูล),9/9 หมู่ 6 ถนนบางขุนเทียน-ชายทะเล แขวงแสมดำ เขตบางขุนเทียน กทม 10150,1021,บางขุนเทียน,โรงเรียนขนาดใหญ่  (จำนวนนักเรียนตั้งแต่ 801 คนขึ้นไป),0 2415 1546,-,facebook.com/โรงเรียนราชมนตรี-ปลื้ม-เชื่อมนุกูล-908785035854100/,1315,41,69,13.64114259,100.4357512
3110012501,โรงเรียนหมู่บ้านเกาะโพธิ์,140 ม.10 แขวงแสมดำ เขตบางขุนเทียน กรุงเทพมหานคร 10150,1021,บางขุนเทียน,โรงเรียนขนาดเล็ก  (จำนวนนักเรียนตั้งแต่ 1-400 คน),0 2452 8401,0 2452 8402,http://schoolweb.eduzones.com/kohpho/index.php?page=index,200,8,13,13.57808724,100.3900258
3110022505,โรงเรียนวัดแสมดำ,40 หมู่ 3 ซอยแสมดำ 24 ถนนพระราม 2 เขตบางขุนเทียน กรุงเทพ 10150,1021,บางขุนเทียน,โรงเรียนขนาดใหญ่  (จำนวนนักเรียนตั้งแต่ 801 คนขึ้นไป),0 2415 7206,0 2415 7206 (104),www.samaedamschool.com/,1221,34,59,13.59089998,100.3862098
3110012507,โรงเรียนคลองพิทยาลงกรณ์,54/3 หมู่ 10 ถนนบางขุนเทียน - ชายทะเล แขวงท่าข้าม เขตบางขุนเทียน กรุงเทพ 10150,1021,บางขุนเทียน,โรงเรียนขนาดกลาง  (จำนวนนักเรียนตั้งแต่ 401-800 คน),0 2452 5001,0 2452 5001,www.klongpittayalongkorn.com/,338,16,20,13.52767342,100.420277
3110012509,โรงเรียนวัดกำแพง,45/62 หมู่ 6 ถ.พระราม 2 แขวงท่าข้าม เขตบางขุนเทียน,1021,บางขุนเทียน,โรงเรียนขนาดใหญ่  (จำนวนนักเรียนตั้งแต่ 801 คนขึ้นไป),0 2415 2276,0 2415 2276 ต่อ 122,facebook.com/โรงเรียนวัดกำแพง-เขตบางขุนเทียน-272045276238840/,751,30,45,13.67898425,100.4463806
3110012510,โรงเรียนศาลเจ้า (ห้าวนุกูลวิทยา),4 ถนนบางขุนเทียนชายทะเล ซอยบางขุนเทียน 12 แขวงแสมดำ เขตบางขุนเทียน กรุงเทพ 10150,1021,บางขุนเทียน,โรงเรียนขนาดใหญ่  (จำนวนนักเรียนตั้งแต่ 801 คนขึ้นไป),0 2415 2089,0 2893 4446,https://sites.google.com/site/sanjaobangkok/prawati-rongreiyn,979,31,41,13.66406301,100.4270986
3110012511,โรงเรียนวัดท่าข้าม,3 ซอยอนามัยงามเจริญ 18 ถนนพระราม 2 แขวงท่าข้าม เขตบางขุนเทียน กทม 10150,1021,บางขุนเทียน,โรงเรียนขนาดใหญ่  (จำนวนนักเรียนตั้งแต่ 801 คนขึ้นไป),0 2451 8546,-,-,1006,32,45,13.65222149,100.4472988
3110022513,โรงเรียนวัดกก,54 หมู่ 1 ถ.พระรามที่ 2 แขวงท่าข้าม เขตบางขุนเทียน,1021,บางขุนเทียน,โรงเรียนขนาดใหญ่  (จำนวนนักเรียนตั้งแต่ 801 คนขึ้นไป),0 2415 1254,-,facebook.com/watkokschoolbma,474,22,35,13.67370586,100.4493436
3110012512,โรงเรียนวัดบัวผัน,82 ซอยอนามัยงามเจริญ 25 แยก 2 แขวงท่าข้าม เขตบางขุนเทียน,1021,บางขุนเทียน,โรงเรียนขนาดเล็ก  (จำนวนนักเรียนตั้งแต่ 1-400 คน),0 2873 8451,-,facebook.com/WatBuaPhan/,87,8,10,13.61218295,100.476833
3110012514,โรงเรียนวัดประชาบำรุง,140 ซอยเทียนทะเล 25 ถนนบางขุนเทียน-ชายทะเล แขวงท่าข้าม เขตบางขุนเทียน กทม 10150,1021,บางขุนเทียน,โรงเรียนขนาดกลาง  (จำนวนนักเรียนตั้งแต่ 401-800 คน),0 2452 3473,-,facebook.com/people/โรงเรียนวัดประชาบำรุง-ลูกวัว/100002188631484,404,16,22,13.56936312,100.4411308
3110012515,โรงเรียนวัดเลา (คณะศิษย์เทพสิทธิอุทิศ),30 ถนนพระราม 2 แขวงท่าข้าม เขตบางขุนเทียน กทม 10150,1021,บางขุนเทียน,โรงเรียนขนาดใหญ่  (จำนวนนักเรียนตั้งแต่ 801 คนขึ้นไป),0 2415 1224,-,www.bmasmartschool.com/watlao/Index.htm,972,39,52,13.66611555,100.4472819
3110012516,โรงเรียนบางขุนเทียนศึกษา,53 ซอยพระราม 2 ซอย 69 แยก 3 แขวงแสมดำ เขตบางขุนเทียน กรุงเทพมหานคร,1021,บางขุนเทียน,โรงเรียนขนาดใหญ่  (จำนวนนักเรียนตั้งแต่ 801 คนขึ้นไป),0 2415 2136,-,www.bkt.ac.th/,2521,64,118,13.64704525,100.4248148
3110012601,โรงเรียนวัดมงคลวราราม,68 ซอยวัฒนา ถนนดาวคะนอง-จอมทอง แขวงบางค้อ เขตจอมทอง กทม 10150,1035,จอมทอง,โรงเรียนขนาดกลาง  (จำนวนนักเรียนตั้งแต่ 401-800 คน),0 2468 1637,-,facebook.com/WatmongkolschoolSompornpasoksan/,275,14,18,13.69572589,100.4799787
3110012602,โรงเรียนวัดนางนอง (พิพัฒน์),78 ถนนวุฒากาศ แขวงบางอ้อ เขตจอมทอง กรุงเทพ 10150,1035,จอมทอง,โรงเรียนขนาดใหญ่  (จำนวนนักเรียนตั้งแต่ 801 คนขึ้นไป),0 2468 0623,-,facebook.com/โรงเรียนวัดนางนองพิพัฒน์-425448097497022/,487,16,24,13.70317137,100.4668411
3110012603,โรงเรียนวัดศาลาครืน,102/1 ซอยศาลาครืน ถนนริมคลองบางหว้า แขวงบางค้อ เขตจอมทอง กทม 10150,1035,จอมทอง,โรงเรียนขนาดกลาง  (จำนวนนักเรียนตั้งแต่ 401-800 คน),0 2468 6052,-,facebook.com/watsalakreunschool/,122,8,13,13.70638092,100.4606479
3110012604,โรงเรียนวัดโพธิ์ทอง (ขวัญโรจน์ราษฏ์รังสฤษฏ์),8/1 ซอยสุขสวัสดิ์26 แขวงบางมด เขตจอมทอง กรุงเทพ,1035,จอมทอง,โรงเรียนขนาดใหญ่  (จำนวนนักเรียนตั้งแต่ 801 คนขึ้นไป),0 2427 3264,-,https://sites.google.com/site/watphothongschool/,787,32,42,13.6684042,100.477654
3110012605,โรงเรียนวัดสีสุก,15 ซ.28 ถ.พระราม 2 แขวงบางมด เขตจอมทอง กรุงเทพมหานคร 10150,1035,จอมทอง,โรงเรียนขนาดใหญ่  (จำนวนนักเรียนตั้งแต่ 801 คนขึ้นไป),0 2468 5157,-,www.watseesuk.com/Main2.htm,554,21,30,13.67895225,100.4641394
3110012606,โรงเรียนวัดบางประทุนนอก,22 หมู่ 10 ซอย 9 ถนนเอกชัย แขวงบางขุนเทียน เขตจอมทอง กทม 10150,1035,จอมทอง,โรงเรียนขนาดกลาง  (จำนวนนักเรียนตั้งแต่ 401-800 คน),0 2415 2279,-,facebook.com/wpnsc,197,9,13,13.69485609,100.459005
3110012607,โรงเรียนวัดโพธิ์แก้ว,16/1 หมู่ 11 ซอย 1 ถนนพระราม 2 แขวงบางมด เขตจอมทอง กทม 10150,1035,จอมทอง,โรงเรียนขนาดกลาง  (จำนวนนักเรียนตั้งแต่ 401-800 คน),0 2427 5140,-,facebook.com/RongreiynWatphokaewKraWlRasdrWithya/,112,8,12,13.68361121,100.4878072
3110012608,โรงเรียนวัดนาคนิมิตร,8 หมู่ 5 ซอยสุขสวัสดิ์ 8 แขวงจอมทอง กรุงเทพมหานคร,1035,จอมทอง,โรงเรียนขนาดใหญ่  (จำนวนนักเรียนตั้งแต่ 801 คนขึ้นไป),0 2468 5210,-,www.watnaknimit.ac.th.122.155.17.117.no-domain.name/index.php?name=news&category=2,736,32,42,13.68821681,100.4795157
3110012609,โรงเรียนวัดบางขุนเทียนนอก (ศิลปเดชศึกษาคาร),1 หมู่ 7 ซอยจอมทอง 19 แขวงจอมทอง เขตจอมทอง,1035,จอมทอง,โรงเรียนขนาดกลาง  (จำนวนนักเรียนตั้งแต่ 401-800 คน),0 2468 5219,-,http://bangkhuntainnok.igetweb.com/,502,20,26,13.69679032,100.4651651
3110022610,โรงเรียนวัดยายร่ม (วัฒนราษฎร์รังสรรค์),24 หมู่ 6 ซอยวัดยายร่ม ถ.พระรามที่ 2 แขวงบางมด เขตจอมทอง,1035,จอมทอง,โรงเรียนขนาดใหญ่  (จำนวนนักเรียนตั้งแต่ 801 คนขึ้นไป),0 2427 1220,-,www.watyairomschool.ac.th/,577,23,35,13.67461018,100.464658
3110012611,โรงเรียนวัดไทร (ถาวรพรหมานุกูล),12 ม.2 ถนนเอกชัย 23 แขวงบางขุนเทียน เขตจอมทอง กรุงเทพมหานคร 10150,1035,จอมทอง,โรงเรียนขนาดใหญ่  (จำนวนนักเรียนตั้งแต่ 801 คนขึ้นไป),0 2415 0624,-,www.watsaischool.com/Home.html,1381,44,77,13.69103394,100.4556624
3110012701,โรงเรียนวัดบางขุนนนท์,31/81 แขวงบางขุนนนท์ เขตบางกอกน้อย กรุงเทพมหานคร 10700,1020,บางกอกน้อย,โรงเรียนขนาดเล็ก  (จำนวนนักเรียนตั้งแต่ 1-400 คน),0 2424 5827,0 2424 5827,http://schoolweb.eduzones.com/watbangkunnon/,81,8,10,13.76705902,100.4690049
3110012702,โรงเรียนวัดวิเศษการ,42/3 ถ.พรานนก แขวงศิริราช เขตบางกอกน้อย,1020,บางกอกน้อย,โรงเรียนขนาดเล็ก  (จำนวนนักเรียนตั้งแต่ 1-400 คน),0 2412 3193,-,facebook.com/wadwisetkanschool/,163,9,12,13.75693564,100.4824433
3110012703,โรงเรียนวัดเจ้าอาม,137/14 ถนนบางขุนนนท์ แขวงบางขุนนนท์ เขตบางกอกน้อย,1020,บางกอกน้อย,โรงเรียนขนาดเล็ก  (จำนวนนักเรียนตั้งแต่ 1-400 คน),0 2424 1774,-,http://203.155.220.242/watchaoam/,108,8,11,13.77579781,100.4648606
3110012704,โรงเรียนวัดโพธิ์เรียง,106/5 ซอยจรัญสนิทวงศ์ 18 แขวงบ้านช่างหล่อ เขตบางกอกน้อย,1020,บางกอกน้อย,โรงเรียนขนาดเล็ก  (จำนวนนักเรียนตั้งแต่ 1-400 คน),0 2412 3036,-,www.poriangschool.ac.th/,111,8,11,13.74433455,100.4718869
3110012705,โรงเรียนวัดยางสุทธาราม,767/92-94 แขวงบ้านช่างหล่อ เขตบางกอกน้อย,1020,บางกอกน้อย,โรงเรียนขนาดใหญ่  (จำนวนนักเรียนตั้งแต่ 801 คนขึ้นไป),0 2411 3176,-,facebook.com/Watyangsuttharam/,476,23,27,13.75393077,100.4740276
3110012706,โรงเรียนวัดศรีสุดาราม,54/8 แขวงบางขุนนนท์ เขตบางกอกน้อย,1020,บางกอกน้อย,โรงเรียนขนาดเล็ก  (จำนวนนักเรียนตั้งแต่ 1-400 คน),0 2424 0424,-,facebook.com/sudaram.school,152,8,11,13.76681194,100.4725361
3110012707,โรงเรียนวัดบางเสาธง,834 แขวงบางขุนศรี เขตบางกอกน้อย,1020,บางกอกน้อย,โรงเรียนขนาดเล็ก  (จำนวนนักเรียนตั้งแต่ 1-400 คน),0 2411 2256,0 2411 2256,http://school.bangkok.go.th/watbangsouthong/,65,8,10,13.74318557,100.4674966
3110012708,โรงเรียนวัดสุวรรณาราม,375/2 ถ.จรัญสนิทวงศ์ 32 แขวงศิริราช เขตบางกอกน้อย,1020,บางกอกน้อย,โรงเรียนขนาดกลาง  (จำนวนนักเรียนตั้งแต่ 401-800 คน),0 2424 6873,0 2424 6873,www.suwan.ac.th,313,14,23,13.76211683,100.477667
3110012709,โรงเรียนวัดพระยาทำ,161/9 แขวงบ้านช่างหล่อ เขตบางกอกน้อย,1020,บางกอกน้อย,โรงเรียนขนาดเล็ก  (จำนวนนักเรียนตั้งแต่ 1-400 คน),0 2411 1251,0 2411 1251,http://203.155.220.242/watprayatham,31,8,10,13.74836929,100.4834343
3110022710,โรงเรียนวัดมะลิ,487/13 แขวงบางขุนศรี เขตบางกอกน้อย,1020,บางกอกน้อย,โรงเรียนขนาดกลาง  (จำนวนนักเรียนตั้งแต่ 401-800 คน),0 2412 2481,-,facebook.com/watmalischool,262,11,17,13.76221886,100.460559
3110012711,โรงเรียนวัดดงมูลเหล็ก,69/2 ถ.อิสรภาพ แขวงบ้านช่างหล่อ เขตบางกอกน้อย,1020,บางกอกน้อย,โรงเรียนขนาดเล็ก  (จำนวนนักเรียนตั้งแต่ 1-400 คน),0 2411 3981,0 2411 3981,http://school.bangkok.go.th/watdongmullek/,55,8,10,13.75144574,100.4753992
3110012712,โรงเรียนวัดอัมพวา,111 แขวงบ้านช่างหล่อ เขตบางกอกน้อน,1020,บางกอกน้อย,โรงเรียนขนาดเล็ก  (จำนวนนักเรียนตั้งแต่ 1-400 คน),0 2411 0548,0 2411 0548,http://watampawa.eu5.org/,133,8,12,13.74861449,100.4757143
3110012713,โรงเรียนวัดสุวรรณคีรี,796/1 แขวงอรุณอัมรินทร์ เขตบางกอกน้อย,1020,บางกอกน้อย,โรงเรียนขนาดเล็ก  (จำนวนนักเรียนตั้งแต่ 1-400 คน),0 2424 0416,-,facebook.com/watsuwankeereeschool/,136,8,11,13.78083126,100.4681568
3110012714,โรงเรียนวัดดุสิตาราม,9/13 ซอยวัดดุสิตาราม ถนนสมเด็จพระปิ่นเกล้า แขวงอรุณอมรินทร์ เขตบางกอกน้อย กรุงเทพ 10700,1020,บางกอกน้อย,โรงเรียนขนาดกลาง  (จำนวนนักเรียนตั้งแต่ 401-800 คน),0 2424 0418,0 2424 0418,http://school.bangkok.go.th/watdusitaram/,261,15,19,13.76404812,100.4872045
3110012715,โรงเรียนวัดปฐมบุตรอิศราราม,197/1 ซอยจรัญสนิทวงศ์45 แขวงอรุณอัมรินทร์ เขตบางกอกน้อย,1020,บางกอกน้อย,โรงเรียนขนาดเล็ก  (จำนวนนักเรียนตั้งแต่ 1-400 คน),0 2424 0415,0 2424 0415,facebook.com/pathombudissararam,108,8,12,13.77328645,100.4766921
3110011702,โรงเรียนพหลโยธิน (พ่วงเจริญอุปถัมภ์),9 ซอย 45 ถนนวิภาวดี รังสิต แขวงสนามบิน เขตดอนเมือง กทม 10210,1036,ดอนเมือง,โรงเรียนขนาดใหญ่  (จำนวนนักเรียนตั้งแต่ 801 คนขึ้นไป),0 2995 0026,0 2531 3005,facebook.com/โรงเรียนพหลโยธิน-พ่วงเจริญอุปถัมภ์-843777735681216/,651,24,36,13.94951409,100.6154473
3110012107,โรงเรียนพิชัยพัฒนา,87/82 ถ.เสรีไทย แขวงคลองกุ่ม เขตบึงกุ่ม กรุงเทพมหานคร 10240,1027,บึงกุ่ม,โรงเรียนขนาดใหญ่  (จำนวนนักเรียนตั้งแต่ 801 คนขึ้นไป),0 2378 1605,-,http://pichaipattana.thaischool1.in.th/,640,24,36,13.77332622,100.6565005
3110022504,โรงเรียนวัดสะแกงาม,20 ซอยสะแกงาม 28 ถนนพระราม 2 แขวงแสมดำ เขตบางขุนเทียน กทม 10150,1021,บางขุนเทียน,โรงเรียนขนาดใหญ่  (จำนวนนักเรียนตั้งแต่ 801 คนขึ้นไป),0 2451 5672,-,www.sakaengam.com,1932,57,97,13.63381506,100.4193745
3110012506,โรงเรียนแก้วขำทับอุปถัมภ์,140 หมู่ 8 ซอย 23 ถนนบางขุนเทียน-ชายทะเล แขวงท่าข้าม เขตบางขุนเทียน กทม 10150,1021,บางขุนเทียน,โรงเรียนขนาดเล็ก  (จำนวนนักเรียนตั้งแต่ 1-400 คน),0 2897 4377,-,facebook.com/kaewkhumtub,104,8,12,13.59327129,100.4492598
3110022508,โรงเรียนวัดบางกระดี่,4 ชุมชนวัดบางกระดี่ แขวงแสมดำ เขตบางขุนเทียน กรุงเทพมหานคร 10150,1021,บางขุนเทียน,โรงเรียนขนาดใหญ่  (จำนวนนักเรียนตั้งแต่ 801 คนขึ้นไป),0 2452 1480,-,facebook.com/โรงเรียนวัดบางกระดี่-368371896508650/,1158,33,54,13.59913844,100.4050186
3110012811,โรงเรียนบางยี่ขันวิทยาคม,165 ซอย 42 ถนนจรัญสนิทวงศ์ แขวงบางยี่ขัน เขตบางพลัด กทม 10700,1025,บางพลัด,โรงเรียนขนาดกลาง  (จำนวนนักเรียนตั้งแต่ 401-800 คน),0 2424 4074,0 2424 1208,facebook.com/yikhan.school,259,12,18,13.77551735,100.4904954
3110013109,โรงเรียนวัดแสนสุข,47/1 หมู่ 2 ถ.สุวินทวงศ์ แขวงมีนบุรี เขตมีนบุรี,1010,มีนบุรี,โรงเรียนขนาดกลาง  (จำนวนนักเรียนตั้งแต่ 401-800 คน),0 2540 7241,-,facebook.com/watsaensuksc/,528,19,33,13.81948412,100.7417991
3110013106,โรงเรียนมีนบุรี,36 ม.1 ถ.เสรีไทย แขวงมีนบุรี เขตมีนบุรี กทม. 10510,1010,มีนบุรี,โรงเรียนขนาดใหญ่  (จำนวนนักเรียนตั้งแต่ 801 คนขึ้นไป),0 2540 7137,-,-,2167,64,118,13.81299657,100.7312904
3110013101,โรงเรียนคลองสองต้นนุ่น,20 หมู่ 6 ถ.ร่มเกล้า แขวงมีนบุรี เขตมีนบุรี,1010,มีนบุรี,โรงเรียนขนาดกลาง  (จำนวนนักเรียนตั้งแต่ 401-800 คน),0 2543 8222,-,www.klongsongtonnoonschool.ac.th/,362,15,18,13.79216885,100.7355758
3110013102,โรงเรียนคลองสาม,37 หมู่ 15 ถ.ร่มเกล้า แขวงแสนแสบ เขตมีนบุรี,1010,มีนบุรี,โรงเรียนขนาดเล็ก  (จำนวนนักเรียนตั้งแต่ 1-400 คน),0 2543 8111,0 2543 8111,facebook.com/โรงเรียนคลองสาม-สำนักงานเขตมีนบุรี-392652270912758/,373,14,19,13.79222196,100.7510296
3110013103,โรงเรียนวังเล็กวิทยานุสรณ์ (คลองสี่),13/1 หมู่ 17 ถ.สุวินทวงศ์ แขวงแสนแสบ เขตมีนบุรี,1010,มีนบุรี,โรงเรียนขนาดเล็ก  (จำนวนนักเรียนตั้งแต่ 1-400 คน),0 2543 8452,0 2543 8452,www.wanglek.ac.th/post/detail/186,275,8,13,13.80329134,100.7703117
3110013105,โรงเรียนบึงขวาง (มหาดไทยอุปถัมภ์),19/3 หมู่ 4 ถ.บึงขวาง แขวงแสนแสบ เขตมีนบุรี,1010,มีนบุรี,โรงเรียนขนาดเล็ก  (จำนวนนักเรียนตั้งแต่ 1-400 คน),0 2543 8400,-,https://bungkwang.wordpress.com/,174,8,11,13.80305888,100.7573716
3110013112,โรงเรียนสุเหร่าบางชัน,47 หมู่ 15 ถ.สุขาภิบาล 2 แขวงมีนบุรี เขตมีนบุรี,1010,มีนบุรี,โรงเรียนขนาดเล็ก  (จำนวนนักเรียนตั้งแต่ 1-400 คน),0 2517 2157,-,www.suraobangchanschool.ac.th/index1.html,241,8,13,13.8040007,100.7019154
3110013108,โรงเรียนวัดบำเพ็ญเหนือ,26 หมู่ 14 ถ.เสรีไทย แขวงมีนบุรี เขตมีนบุรี,1010,มีนบุรี,โรงเรียนขนาดใหญ่  (จำนวนนักเรียนตั้งแต่ 801 คนขึ้นไป),0 2517 0906,0 2517 0906,www.bpnschool.com/story1.html,591,20,36,13.80001528,100.7083419
3110023113,โรงเรียนสุเหร่าทรายกองดิน,61 หมู่ 8 ถ.ราษฏร์อุทิศ แขวงแสนแสบ เขตมีนบุรี,1010,มีนบุรี,โรงเรียนขนาดใหญ่  (จำนวนนักเรียนตั้งแต่ 801 คนขึ้นไป),0 2543 8669,-,www.saikongdin.net/,1619,53,77,13.83442494,100.7732663
3110013111,โรงเรียนศาลาคู้,35/1 ถ.ราษฎร์อุทิศ แขวงแสนแสบ เขตมีนบุรี,1010,มีนบุรี,โรงเรียนขนาดกลาง  (จำนวนนักเรียนตั้งแต่ 401-800 คน),0 2186 0510,0 2186 0510,http://school.bangkok.go.th/salakoo/general.html,378,16,18,13.84520796,100.7955477
3110023104,โรงเรียนบ้านเกาะ,24 ถ.สุวินทวงศ์ แขวงแสนแสบ เขตมีนบุรี,1010,มีนบุรี,โรงเรียนขนาดกลาง  (จำนวนนักเรียนตั้งแต่ 401-800 คน),0 2543 8333,0 2543 8333,http://school.bangkok.go.th/bankhor/,489,22,25,13.822517,100.78138
3110023107,โรงเรียนวัดทองสัมฤทธิ์,50/1 หมู่ 18 ถ.คุ้มเกล้า แขวงแสนแสบ เขตมีนบุรี,1010,มีนบุรี,โรงเรียนขนาดกลาง  (จำนวนนักเรียนตั้งแต่ 401-800 คน),0 2175 4100,-,facebook.com/pages/โรงเรียนวัดทองสัมฤทธิ์/168282766554457,581,16,27,13.80093998,100.7867372
3110023201,โรงเรียนวัดลาดกระบัง,125 หมู่ 4 ถ.ร่มเกล้า แขวงลาดกระบัง เขตลาดกระบัง,1011,ลาดกระบัง,โรงเรียนขนาดใหญ่  (จำนวนนักเรียนตั้งแต่ 801 คนขึ้นไป),0 2326 9653,0 2326 9653,www.lkbschool.com/,686,24,43,13.72699102,100.752412
3110013202,โรงเรียนวัดปลูกศรัทธา,85/1 หมู่ 3 แขวงลาดกระบัง เขตลาดกระบัง,1011,ลาดกระบัง,โรงเรียนขนาดใหญ่  (จำนวนนักเรียนตั้งแต่ 801 คนขึ้นไป),0 2326 9005,0 2326 9005,www.watplooksattha.ac.th/,1070,35,49,13.72732083,100.7682702
3110023216,โรงเรียนวัดสังฆราชา,336 หมู่ 5 ถ.อ่อนนุช แขวงลาดกระบัง เขตลาดกระบัง,1011,ลาดกระบัง,โรงเรียนขนาดใหญ่  (จำนวนนักเรียนตั้งแต่ 801 คนขึ้นไป),0 2181 2213,0 2181 2213,www.watsangkarachaschool.ac.th/,567,19,26,13.7263627,100.7377256
3110013204,โรงเรียนวัดบำรุงรื่น,61 หมู่ 3 ถ.ร่มเกล้า แขวงคลองสาม เขตลาดกระบัง,1011,ลาดกระบัง,โรงเรียนขนาดใหญ่  (จำนวนนักเรียนตั้งแต่ 801 คนขึ้นไป),0 2360 9283,0 2360 9283,-,652,20,34,13.74263055,100.755792
3110013205,โรงเรียนวัดพลมานีย์,22 หมู่ 2 ถ.ประชาพัฒนา แขวงทับยาว เขตลาดกระบัง,1011,ลาดกระบัง,โรงเรียนขนาดใหญ่  (จำนวนนักเรียนตั้งแต่ 801 คนขึ้นไป),0 2172 9743,-,facebook.com/watpolmanee/,1113,39,57,13.72308345,100.7980908
3110013206,โรงเรียนวัดสุทธาโภชน์,139 หมู่ 7 ถ.ฉลองกรุง แขวงทับยาว เขตลาดกระบัง,1011,ลาดกระบัง,โรงเรียนขนาดกลาง  (จำนวนนักเรียนตั้งแต่ 401-800 คน),0 2737 3088,-,facebook.com/watsutthapoch/,502,22,28,13.7402482,100.7954479
3110013207,โรงเรียนแสงหิรัญวิทยา,99 หมู่ 3 ถ.หลวงแพ่ง แขวงทับยาว เขตลาดกระบัง,1011,ลาดกระบัง,โรงเรียนขนาดใหญ่  (จำนวนนักเรียนตั้งแต่ 801 คนขึ้นไป),0 2326 6937,-,facebook.com/sanghirun.wittaya,1110,33,65,13.7127977,100.8129702
3110013209,โรงเรียนวัดบึงบัว,57 หมู่ 4 ถ.คุ้มเกล้า แขวงลำปลาทิว เขตลาดกระบัง,1011,ลาดกระบัง,โรงเรียนขนาดกลาง  (จำนวนนักเรียนตั้งแต่ 401-800 คน),0 2360 5587,0 2360 5587,www.watbuengbua.com,446,20,26,13.76518536,100.7766546
3110013210,โรงเรียนวัดทิพพาวาส,68 หมู่ 7 ถ.ฉลองกรุง 5 แขวงลำปลาทิว เขตลาดกระบัง,1011,ลาดกระบัง,โรงเรียนขนาดกลาง  (จำนวนนักเรียนตั้งแต่ 401-800 คน),0 2347 1154,0 2347 1154,http://tipphawas.com/mainpage,762,24,36,13.78047002,100.8013864
3110013211,โรงเรียนลำพะอง (ราษฎร์จำเริญบุำรุง),307 ถ.ฉลองกรุง แขวงลำปลาทิว เขตลาดกระบัง กรุงเทพมหานคร 10520,1011,ลาดกระบัง,โรงเรียนขนาดใหญ่  (จำนวนนักเรียนตั้งแต่ 801 คนขึ้นไป),0 2737 2206,0 2737 2206,http://lampaong.com/,890,37,42,13.77330392,100.8123076
3110023212,โรงเรียนวัดราชโกษา,77 หมู่ 1 ซ.หลวงแพ่ง แขวงขุมทอง เขตลาดกระบัง,1011,ลาดกระบัง,โรงเรียนขนาดใหญ่  (จำนวนนักเรียนตั้งแต่ 801 คนขึ้นไป),0 2704 1207,0 2704 1207,facebook.com/ratchakosa,1059,35,54,13.69962587,100.8512315
3110013208,โรงเรียนประสานสามัคคี (บ้านทับยาว),97/2 หมู่ 8 ถ.ทับยาว แขวงทับยาว เขตลาดกระบัง,1011,ลาดกระบัง,โรงเรียนขนาดเล็ก  (จำนวนนักเรียนตั้งแต่ 1-400 คน),0 2739 5446,0 2739 5446,facebook.com/prasansamakee,116,8,10,13.73183849,100.8377642
3110013213,โรงเรียนวัดขุมทอง,11 หมู่ 5 ถ.ขุมทอง แขวงขุมทอง เขตลาดกระบัง,1011,ลาดกระบัง,โรงเรียนขนาดเล็ก  (จำนวนนักเรียนตั้งแต่ 1-400 คน),0 2739 5399,0 2739 5399,www.bmaschool.net/watkhumtong/,77,8,10,13.72206513,100.851509
3110013214,โรงเรียนตำบลขุมทอง (ประชาอุทิศ),68 หมู่ 7 แขวงขุมทอง เขตลาดกระบัง,1011,ลาดกระบัง,โรงเรียนขนาดเล็ก  (จำนวนนักเรียนตั้งแต่ 1-400 คน),0 2130 5605,0 2130 5605,www.thambonkhumthong.ac.th/,66,8,10,13.75484876,100.8571292
3110013215,โรงเรียนขุมทอง (เพชรทองคำอุปถัมภ์),130 หมู่ 5 แขวงขุมทอง เขตลาดกระบัง,1011,ลาดกระบัง,โรงเรียนขนาดเล็ก  (จำนวนนักเรียนตั้งแต่ 1-400 คน),0 2739 3060,0 2739 3060,http://203.155.220.242/athletic/,96,8,10,13.74165046,100.8527075
3110023216,โรงเรียนวัดลานบุญ,117 แขวงลาดกระบัง เขตลาดกระบัง กรุงเทพมหานคร 10520,1011,ลาดกระบัง,โรงเรียนขนาดใหญ่  (จำนวนนักเรียนตั้งแต่ 801 คนขึ้นไป),0 2329 0283,0 2329 0283,www.watlanboon.com,1621,54,80,13.72544709,100.7200417
3110013217,โรงเรียนวัดปากบึง,46 หมู่ 6 ถ.ร่มเกล้า แขวงคลองสอง เขตลาดกระบัง,1011,ลาดกระบัง,โรงเรียนขนาดใหญ่  (จำนวนนักเรียนตั้งแต่ 801 คนขึ้นไป),0 2543 9844,0 2543 9844,www.โรงเรียนวัดปากบึง.com/,1145,35,56,13.77683958,100.7381443
3110013218,โรงเรียนสุเหร่าลำนายโส,30 หมู่ 4 แขวงคลองสองต้นนุ่น เขตลาดกระบัง,1011,ลาดกระบัง,โรงเรียนขนาดเล็ก  (จำนวนนักเรียนตั้งแต่ 1-400 คน),0 2918 4656,0 2918 4656,www.suraolumnaiso.ac.th/,196,8,11,13.77546331,100.7243556
3110013219,โรงเรียนแดงเป้า (สิงสุขบูรณะ),79 หมู่ 1 แขวงคลองสองต้นนุ่น เขตลาดกระบัง,1011,ลาดกระบัง,โรงเรียนขนาดเล็ก  (จำนวนนักเรียนตั้งแต่ 1-400 คน),0 2737 9319,0 2737 9319,facebook.com/dangpaoschool,156,8,12,13.74823934,100.7243503
3110013220,โรงเรียนเคหะชุมชนลาดกระบัง,3 หมู่ 3 ถ.ร่มเกล้า แขวงคลองสองต้นนุ่น เขตลาดกระบัง,1011,ลาดกระบัง,โรงเรียนขนาดใหญ่  (จำนวนนักเรียนตั้งแต่ 801 คนขึ้นไป),0 2543 9568,0 2543 9568,www.klbs.ac.th/,2261,68,107,13.76573153,100.730415
3110023601,โรงเรียนประชาราษฎร์บำเพ็ญ,500 ซอยประชาราษฎร์บำเพ็ญ 24 แขวงสามเสนนอก เขตห้วยขวาง กรุงเทพ 10310,1017,ห้วยขวาง,โรงเรียนขนาดใหญ่  (จำนวนนักเรียนตั้งแต่ 801 คนขึ้นไป),0 2277 3353,0 2690 6966,www.pcb.ac.th/,1519,49,81,13.77577626,100.5836447
3110013602,โรงเรียนพระราม ๙ กาญจนาภิเษก,542 ซ.พระราม9/19 แขวงบางกะปิ เขตห้วยขวาง,1017,ห้วยขวาง,โรงเรียนขนาดใหญ่  (จำนวนนักเรียนตั้งแต่ 801 คนขึ้นไป),0 2319 3744,-,http://praram9.ac.th/,863,36,43,13.75953554,100.5930694
3110013110,โรงเรียนวัดใหม่ลำนกแขวก,9/1 หมู่ 10 ถ.สุวินทวงศ์ แขวงแสนแสบ เขตมีนบุรี,1010,มีนบุรี,โรงเรียนขนาดกลาง  (จำนวนนักเรียนตั้งแต่ 401-800 คน),0 2172 5159,-,www.watmaischool.com/,420,16,23,13.80784996,100.8070807
3110010101,โรงเรียนวัดมกุฎกษัตริยาราม,330/3 ถนนกรุงเกษม แขวงบางขุนพรหม เขตพระนคร กทม. 10200,1001,พระนคร  ,โรงเรียนขนาดกลาง  (จำนวนนักเรียนตั้งแต่ 401-800 คน),0 2281 2570,0 2281 2570,premakut.wixsite.com/makutkasat,307,14,18,13.76533809,100.5069755
3110010102,โรงเรียนวัดตรีทศเทพ,165 ถนนประชาธิปไตย แขวงบ้านพานถม เขตพระนคร กทม 10200,1001,พระนคร  ,โรงเรียนขนาดเล็ก  (จำนวนนักเรียนตั้งแต่ 1-400 คน),0 2282 7851,0 2629 2785,www.wattritosathep.ac.th/,72,8,10,13.76148278,100.5032794
3110010103,โรงเรียนวัดราชนัดดา,2 ถนนมหาไชย แขวงบวรนิเวศ เขตพระนคร กทม 10200,1001,พระนคร  ,โรงเรียนขนาดเล็ก  (จำนวนนักเรียนตั้งแต่ 1-400 คน),0 2221 0903,-,www.ratchanadda.com/,68,8,10,13.75545013,100.5038327
3110010104,โรงเรียนวัดมหรรณพาราม,261/1 ถ.ตะนาว แขวงเสาชิงช้า เขตพระนคร,1001,พระนคร  ,โรงเรียนขนาดเล็ก  (จำนวนนักเรียนตั้งแต่ 1-400 คน),0 2224 1165,0 2224 1165,www.watmahannapharam.ac.th/th/,196,8,13,13.75414209,100.4989417
3110010105,โรงเรียนวัดสุทัศน์,18/1 ถ.ตีทอง แขวงวัดราชบพิธ เขตพระนคร,1001,พระนคร  ,โรงเรียนขนาดเล็ก  (จำนวนนักเรียนตั้งแต่ 1-400 คน),0 2221 4331,0 2221 4331,www.wst.ac.th/,146,8,12,13.74894802,100.5013222
3110010106,โรงเรียนวัดมหาธาตุ,3 ถนนพระจันทร์ แขวงพระบรมหาราชวัง เขตพระนคร,1001,พระนคร  ,โรงเรียนขนาดเล็ก  (จำนวนนักเรียนตั้งแต่ 1-400 คน),0 2222 2869,0 2222 2869,sites.google.com/site/mahathatschool112/,53,8,12,13.75566314,100.491091
3110010107,โรงเรียนวัดพระเชตุพน,2 ถ.สนามไชย แขวงพระบรมมหาราชวัง เขตพระนคร,1001,พระนคร  ,โรงเรียนขนาดเล็ก  (จำนวนนักเรียนตั้งแต่ 1-400 คน),0 2225 9595,-,-,89,8,10,13.74627121,100.4925758
3110010108,โรงเรียนราชบพิธ,29 ถ.ราชบพิธ แขวงราชบพิธ เขตพระนคร,1001,พระนคร  ,โรงเรียนขนาดกลาง  (จำนวนนักเรียนตั้งแต่ 401-800 คน),0 2226 3071,-,www.rb.ac.th/,275,14,21,13.74976285,100.4996259
3110010109,โรงเรียนวัดราชบูรณะ,133/18 ถ.ตรีเพชร แขวงวังบูรพาภิรมย์ เขตพระนคร,1001,พระนคร  ,โรงเรียนขนาดเล็ก  (จำนวนนักเรียนตั้งแต่ 1-400 คน),0 2221 9844,0 2623 7347,facebook.com/watratchaburana.pranakorn.3,104,8,11,13.74292067,100.4995176
3110010110,โรงเรียนวัดอินทรวิหาร,1 ถ.วิสุทกษัตริย์ แขวงบางขุนพรหม เขตพระนคร,1001,พระนคร  ,โรงเรียนขนาดเล็ก  (จำนวนนักเรียนตั้งแต่ 1-400 คน),0 2281 9875,0 2281 9875,facebook.com/watin310/,87,8,10,13.76684925,100.5022779
3110010201,โรงเรียนวัดพระพิเรนทร์,326 คลองถม แขวงบ้านบาตร เขตป้อมปราบศัตรูพ่าย,1008,ป้อมปราบศัตรูพ่าย,โรงเรียนขนาดเล็ก  (จำนวนนักเรียนตั้งแต่ 1-400 คน),0 2222 3874,-,facebook.com/profile.php?id=100005336618631&pnref=story,117,8,10,13.74758397,100.5056227
3110010202,โรงเรียนวัดสิตาราม,21/2 ถ.ดำรงรักษ์ แขวงมหานาค เขตป้อมปราบศัตรูพ่าย,1008,ป้อมปราบศัตรูพ่าย,โรงเรียนขนาดเล็ก  (จำนวนนักเรียนตั้งแต่ 1-400 คน),0 2281 0085,-,facebook.com/watsitaramschoolbma/,189,8,15,13.75520441,100.5100177
3110010203,โรงเรียนวัดคณิกาผล,405/1 ถ.มังกร แขวงป้อมปราบศัตรูพ่าย เขตป้อมปราบศัตรูพ่าย,1008,ป้อมปราบศัตรูพ่าย,โรงเรียนขนาดเล็ก  (จำนวนนักเรียนตั้งแต่ 1-400 คน),0 2226 3698,-,https://wknp.wordpress.com/,119,8,12,13.7446375,100.5099962
3110010204,โรงเรียนวัดดิสานุการาม,ถ.วรจักร แขวงเทพศิรินทร์ เขตป้อมปราบศัตรูพ่าย,1008,ป้อมปราบศัตรูพ่าย,โรงเรียนขนาดเล็ก  (จำนวนนักเรียนตั้งแต่ 1-400 คน),0 2223 5069,-,facebook.com/watdisanukaramschool,91,8,10,13.74898801,100.5081007
3110010301,โรงเรียนวัดบรมนิวาส,2/1 ถ.พระราม 1 แขวงรองเมือง เขตปทุมวัน,1007,ปทุมวัน,โรงเรียนขนาดเล็ก  (จำนวนนักเรียนตั้งแต่ 1-400 คน),0 2214 4331,-,facebook.com/boromnivas,154,8,13,13.75173395,100.5202045
3110020302,โรงเรียนวัดชัยมงคล,437 ถ.พระราม 1 แขวงรองเมือง เขตปทุมวัน,1007,ปทุมวัน,โรงเรียนขนาดเล็ก  (จำนวนนักเรียนตั้งแต่ 1-400 คน),0 2214 0210,0 2214 0210,www.bangkok.go.th/watchaimongkol/index,155,11,17,13.74803523,100.5233987
3110020303,โรงเรียนวัดปทุมวนาราม ในพระบรมราชูปถัมภ์สมเด็จพระเทพรัตนราชสุดาฯ สยามบรมราชกุมารี,969/1 ถ.พระราม 1 แขวงปทุมวัน เขตปทุมวัน,1007,ปทุมวัน,โรงเรียนขนาดกลาง  (จำนวนนักเรียนตั้งแต่ 401-800 คน),0 2251 2995,0 2251 2995,http://watpathumschool.siam2web.com/,605,22,29,13.74660034,100.5361318
3110010305,โรงเรียนวัดสระบัว,6 ถ.พระราม 1 แขวงรองเมือง เขตปทุมวัน,1007,ปทุมวัน,โรงเรียนขนาดกลาง  (จำนวนนักเรียนตั้งแต่ 401-800 คน),0 2214 4334,-,-,195,8,13,13.74764983,100.5184675
3110010306,โรงเรียนสวนลุมพินี,196 ถ.วิทยุ แขวงลุมพินี เขตปทุมวัน,1007,ปทุมวัน,โรงเรียนขนาดกลาง  (จำนวนนักเรียนตั้งแต่ 401-800 คน),0 2252 6957,0 2252 1933,facebook.com/suanlumphini.school/,426,18,26,13.73306588,100.5452439
3110010308,โรงเรียนวัดดวงแข,86 ถ.จารุเมือง แขวงรองเมือง เขตปทุมวัน,1007,ปทุมวัน,โรงเรียนขนาดเล็ก  (จำนวนนักเรียนตั้งแต่ 1-400 คน),0 2214 3511,0 2214 3511,www.watduangkhaeschool.com/,250,13,15,13.7420573,100.5194763
3110010309,โรงเรียนปลูกจิต,99 ซ.ปลูกจิตต์ แขวงลุมพินี เขตปทุมวัน,1007,ปทุมวัน,โรงเรียนขนาดกลาง  (จำนวนนักเรียนตั้งแต่ 401-800 คน),0 2251 5954,-,www.plookchitschool.com/,438,16,22,13.72849857,100.5499666
3110010401,โรงเรียนวัดจักรวรรดิ์,225/1 ถนนจักรวรรดิ แขวงจักรวรรดิ เขตสัมพันธวงศ์ กรุงเทพฯ 10100,1013,สัมพันธวงศ์,โรงเรียนขนาดเล็ก  (จำนวนนักเรียนตั้งแต่ 1-400 คน),0 2221 8723,0 2221 8723,http://watjakrawad.com/,86,8,10,13.74266936,100.5036772
3110010402,โรงเรียนวัดปทุมคงคา,1620/1 ถ.ทรงวาด แขวง สัมพันธวงศ์ เขต สัมพันธวงศ์,1013,สัมพันธวงศ์,โรงเรียนขนาดเล็ก  (จำนวนนักเรียนตั้งแต่ 1-400 คน),0 2233 3216,0 2233 3216,https://sites.google.com/a/wpkschool.info/www/home,167,8,10,13.73701194,100.5108721
3110010403,โรงเรียนวัดสัมพันธวงค์,579/14 ถ.ทรงวาด แขวงสัมพันธวงศ์ เขตสัมพันธวงศ์,1013,สัมพันธวงศ์,โรงเรียนขนาดเล็ก  (จำนวนนักเรียนตั้งแต่ 1-400 คน),0 2222 6084,-,facebook.com/samphantawong.school,109,8,10,13.73836708,100.5095215
3110010501,โรงเรียนวัดหัวลำโพง,728/1 ถ.พระรามสี่ แขวงสี่พระยา เขตบางรัก,1004,บางรัก,โรงเรียนขนาดเล็ก  (จำนวนนักเรียนตั้งแต่ 1-400 คน),0 2233 3730,0 2233 3730,-,265,13,15,13.73191299,100.5286112
3110010502,โรงเรียนวัดม่วงแค,30 ถ.เจริญกรุง แขวงบางรัก เขตบางรัก,1004,บางรัก,โรงเรียนขนาดเล็ก  (จำนวนนักเรียนตั้งแต่ 1-400 คน),0 2234 1497,-,facebook.com/watmuangkae,45,8,10,13.72623796,100.5151396
3110010503,โรงเรียนวัดมหาพฤฒาราม,44 ถ.สี่พระยา แขวงมหาพฤฒาราม เขตบางรัก,1004,บางรัก,โรงเรียนขนาดเล็ก  (จำนวนนักเรียนตั้งแต่ 1-400 คน),0 2236 4560,-,facebook.com/mahaprutaram,82,8,10,13.73219196,100.5170919
3110010504,โรงเรียนวัดสวนพลู,58/1 ถ.เจริญกรุง แขวงบางรัก เขตบางรัก,1004,บางรัก,โรงเรียนขนาดเล็ก  (จำนวนนักเรียนตั้งแต่ 1-400 คน),0 2234 4471,-,facebook.com/โรงเรียนวัดสวนพลู-สำนักงานเขตบางรัก-342760582487733/?ref=page_internal,153,8,10,13.72199424,100.5158336
3110010505,โรงเรียนวัดแก้วแจ่มฟ้า,562 ถ.สี่พระยา แขวงมหาพฤฒาราม เขตบางรัก,1004,บางรัก,โรงเรียนขนาดเล็ก  (จำนวนนักเรียนตั้งแต่ 1-400 คน),0 2236 3654,-,-,90,8,10,13.73177946,100.5194933
3110010601,โรงเรียนวัดประชาระบือธรรม,158 ถ.พระราม 5 แขวงถนนนครไชยศรี เขตดุสิต,1002,ดุสิต,โรงเรียนขนาดกลาง  (จำนวนนักเรียนตั้งแต่ 401-800 คน),0 2241 0268,-,www.scc.ac.th/student_web/2_47/project007/VV4.htm,441,22,25,13.78970478,100.5251298
3110010602,โรงเรียนวัดสวัสดิ์วารีสีมาราม,996 ถ.นครไชยศรี เขตดุสิต,1002,ดุสิต,โรงเรียนขนาดเล็ก  (จำนวนนักเรียนตั้งแต่ 1-400 คน),0 2241 0437,-,www.scc.ac.th/student_web/2_47/project007/N2.htm,83,8,10,13.7807782,100.5156662
3110010603,โรงเรียนวัดราชผาติการาม,147 ถ.ราชวิถี แขวงวชิรพยาบาล เขตดุสิต,1002,ดุสิต,โรงเรียนขนาดเล็ก  (จำนวนนักเรียนตั้งแต่ 1-400 คน),0 2241 0495,0 2241 0495,www.rajpha.6te.net/,81,8,10,13.78056599,100.5045852
3110010604,โรงเรียนวัดเทวราชกุญชร,90/1 ถ.ศรีอยุธยา แขวงวชิรพยาบาล เขตดุสิต,1002,ดุสิต,โรงเรียนขนาดเล็ก  (จำนวนนักเรียนตั้งแต่ 1-400 คน),0 2281 7938,0 2282 9815,www.thewarath.ac.th/,121,8,10,13.77300885,100.5016606
3110010605,โรงเรียนวัดสัมณานัมบริหาร,416/1 ถ.พิษณุโลก แขวงสี่แยกมหานาค เขตดุสิต,1002,ดุสิต,โรงเรียนขนาดเล็ก  (จำนวนนักเรียนตั้งแต่ 1-400 คน),0 2282 2703,0 2282 2703,sites.google.com/site/watsamananum2012/,184,9,14,13.75981201,100.5163079
3110010606,โรงเรียนเบญจมบพิตร,69 ถ.นครปฐม เขตดุสิต,1002,ดุสิต,โรงเรียนขนาดใหญ่  (จำนวนนักเรียนตั้งแต่ 801 คนขึ้นไป),0 2281 0158,-,facebook.com/benchamabopitr,639,22,35,13.76631526,100.5127247
3110010607,โรงเรียนสุโขทัย,361 ถ.สุโขทัย แขวงสวนจิตรลดา เขตดุสิต,1002,ดุสิต,โรงเรียนขนาดกลาง  (จำนวนนักเรียนตั้งแต่ 401-800 คน),0 2241 3671,-,facebook.com/people/โรงเรียนสุโขทัย-สำนักงานเขตดุสิต/100004030039277,347,15,23,13.77627259,100.5221757
3110010608,โรงเรียนวัดจันทร์สโมสร,977/39 ถ.สามเสน แขวงนครไชยศรี เขตดุสิต,1002,ดุสิต,โรงเรียนขนาดกลาง  (จำนวนนักเรียนตั้งแต่ 401-800 คน),0 2241 2655,0 2241 2655,school.bangkok.go.th/watjansamosorn/,327,15,18,13.79100395,100.5152975
3110010609,โรงเรียนวัดธรรมาภิรตาราม,170/2 ถ.เตชะวณิช แขวงบางซื่อ เขตดุสิต,1002,ดุสิต,โรงเรียนขนาดกลาง  (จำนวนนักเรียนตั้งแต่ 401-800 คน),0 2587 0827,-,facebook.com/watthammasc,503,16,27,13.79877608,100.5330598
3110011001,โรงเรียนวัดดอกไม้,583 ถ.พระราม 3 แขวงบางโพงพาง เขตยานนาวา,1012,ยานนาวา,โรงเรียนขนาดใหญ่  (จำนวนนักเรียนตั้งแต่ 801 คนขึ้นไป),0 2294 0796,0 2294 0796,www.watdokmaischool.ac.th/mainpage,552,23,33,13.68312552,100.5260308
3110011002,โรงเรียนวัดช่องลม,29 ถ.พระราม 3 แขวงช่องนนทรี เขตยานนาวา,1012,ยานนาวา,โรงเรียนขนาดใหญ่  (จำนวนนักเรียนตั้งแต่ 801 คนขึ้นไป),0 2285 3466,0 2285 3466,facebook.com/chonglom.school/,507,25,31,13.70441601,100.5459532
3110011003,โรงเรียนวัดช่องนนทรี,461 ถ.ช่องนนทรี แขวงช่องนนทรี เขตยานนาวา,1012,ยานนาวา,โรงเรียนขนาดใหญ่  (จำนวนนักเรียนตั้งแต่ 801 คนขึ้นไป),087 753 5979,-,facebook.com/watchongnonsi/,652,28,37,13.69367649,100.5446442
3110011004,โรงเรียนวัดปริวาศ,762/1 ถ.พระราม 3 แขวงบางโพงพาง เขตยานนาวา,1012,ยานนาวา,โรงเรียนขนาดกลาง  (จำนวนนักเรียนตั้งแต่ 401-800 คน),0 2294 2515,0 2294 2515,facebook.com/wprschool,113,8,11,13.67308296,100.5333245
3110011005,โรงเรียนวัดคลองใหม่,18 ถ.พระราม 3 แขวงบางโพงพาง เขตยานนาวา,1012,ยานนาวา,โรงเรียนขนาดเล็ก  (จำนวนนักเรียนตั้งแต่ 1-400 คน),0 2294 3246,0 2294 3246,http://watklongmaischool.com/,122,8,11,13.67798918,100.5438578
3110011006,โรงเรียนวัดคลองภูมิ,22/1 ถ.พระราม 3 แขวงช่องนนทรี เขตยานนาวา,1012,ยานนาวา,โรงเรียนขนาดเล็ก  (จำนวนนักเรียนตั้งแต่ 1-400 คน),0 2294 1985,0 2294 1985,www.bmaschool.net/watklongpoom/,124,8,11,13.68077022,100.5486923
3110010801,โรงเรียนวัดไผ่ตัน,64/1 หมู่ 4 ถ.พหลโยธิน แขวงสามเสนใน เขตพญาไท,1014,พญาไท,โรงเรียนขนาดใหญ่  (จำนวนนักเรียนตั้งแต่ 801 คนขึ้นไป),0 2278 1542,0 2278 1542,http://phiton.thaischool.in.th/,644,26,37,13.79628523,100.5482858
3110011603,โรงเรียนบ้านบัวมล,59/1 หมู่ ถ.สุขาภิบาล 5 แขวงท่าแร้ง เขตบางเขน,1005,บางเขน,โรงเรียนขนาดกลาง  (จำนวนนักเรียนตั้งแต่ 401-800 คน),0 2519 8825,0 2519 8825,www.banbuamon.ac.th/,409,18,23,13.88084735,100.6557439
3110011604,โรงเรียนประชาภิบาล,11/15 หมู่ 3 แขวงอนุสาวรีย์ เขตบางเขน,1005,บางเขน,โรงเรียนขนาดกลาง  (จำนวนนักเรียนตั้งแต่ 401-800 คน),0 2521 0424,0 2521 0424,http://schoolweb.eduzones.com/prachapibal/,475,24,25,13.87304009,100.5969774
3110011602,โรงเรียนบ้านคลองบัว,112 หมู่ 6 ถ.รามอินทรา แขวงท่าแร้ง เขตบางเขน,1005,บางเขน,โรงเรียนขนาดใหญ่  (จำนวนนักเรียนตั้งแต่ 801 คนขึ้นไป),0 2519 9104,0 2949 8856,www.banklongbua.com/,1398,46,71,13.86433542,100.6407138
3110011605,โรงเรียนวัดไตรรัตนาราม,3/1 ซ.วัดไทรรัตนาราม แขวงอนุสาวรีย์ เขตบางเขน,1005,บางเขน,โรงเรียนขนาดกลาง  (จำนวนนักเรียนตั้งแต่ 401-800 คน),0 2552 2079,0 2552 2079,www.wattri.ac.th,655,24,34,13.84995927,100.6182908
3110011901,โรงเรียนไขศรีปราโมชอนุสรณ์,136 ถ.ลาดพร้าว 134 แขวงคลองจั่น เขตบางกะปิ,1006,บางกะปิ,โรงเรียนขนาดกลาง  (จำนวนนักเรียนตั้งแต่ 401-800 คน),0 2377 6514,0 2377 6514,www.khaisrischool.com,280,16,20,13.76424023,100.6365179
3110011902,โรงเรียนสุเหร่าคลองจั่น,191 ซอยลาดพร้าว 130 ถนนลาดพร้าว แขวงคลองจั่น เขตบางกะปิ,1006,บางกะปิ,โรงเรียนขนาดเล็ก  (จำนวนนักเรียนตั้งแต่ 1-400 คน),0 2377 6929,0 2377 6928,www.suraoklongchan.com/index.php,370,16,19,13.76446016,100.6347069
3110011903,โรงเรียนวัดเทพลีลา,76 ซ.รามคำแหง 41 แขวงหัวหมาก เขตบางกะปิ,1006,บางกะปิ,โรงเรียนขนาดใหญ่  (จำนวนนักเรียนตั้งแต่ 801 คนขึ้นไป),0 2318 0625,0 2318 4617,www.tepleela.ac.th/,1384,38,66,13.75830478,100.6155041
3110011904,โรงเรียนวัดศรีบุญเรือง,130 หมู่ 2 ถ.ลาดพร้าว 130 แ ขวงคลองจั่น เขตบางกะปิ,1006,บางกะปิ,โรงเรียนขนาดใหญ่  (จำนวนนักเรียนตั้งแต่ 801 คนขึ้นไป),0 2374 6558,-,facebook.com/โรงเรียนวัดศรีบุญเรือง-บางกะปิ-กรุงเทพมหานคร-334698523394781/?ref=page_internal,603,22,35,13.7667909,100.6525059
3110011905,โรงเรียนลำสาลี (ราษฎร์บำรุง),183 ถนนกรุงเทพกรีฑา แขวงหัวหมาก เขตบางกะปิ,1006,บางกะปิ,โรงเรียนขนาดกลาง  (จำนวนนักเรียนตั้งแต่ 401-800 คน),0 2379 4724,0 2379 4724,www.lamsalee.com/2009/,510,22,27,13.74948603,100.6504889
3110011906,โรงเรียนคลองกะจะ,163 ถนนรามคำแหง 24 แยก 34 แขวงหัวหมาก เขตบางกะปิ,1006,บางกะปิ,โรงเรียนขนาดเล็ก  (จำนวนนักเรียนตั้งแต่ 1-400 คน),0 2300 4695,-,http://klongkaja.com,389,16,21,13.74895943,100.6290975
3110011907,โรงเรียนสุเหร่าวังใหญ่,40 ซ.15 แยก 4 ถนนกรุงเทพกรีฑา แขวงหัวหมาก เขตบางกะปิ,1006,บางกะปิ,โรงเรียนขนาดเล็ก  (จำนวนนักเรียนตั้งแต่ 1-400 คน),0 2368 3909,0 2368 3909,www.suraowangyai.ac.th/,181,8,13,13.74922689,100.6741769
3110011908,โรงเรียนสุเหร่าหัวหมากน้อย,171 ซอยรามคำแหง 60 ถ.รามคำแหง แขวงหัวหมาก เขตบางกะปิ,1006,บางกะปิ,โรงเรียนขนาดกลาง  (จำนวนนักเรียนตั้งแต่ 401-800 คน),0 2374 4170,0 2374 4170,www.huamaknoi.com/,448,22,25,13.75829206,100.656894
3110011909,โรงเรียนบ้านบางกะปิ (ประถมศึกษา),93 ถ.นวมินทร์ แขวงคลองจั่น เขตบางกะปิ,1006,บางกะปิ,โรงเรียนขนาดใหญ่  (จำนวนนักเรียนตั้งแต่ 801 คนขึ้นไป),0 2733 7069,-,www.banbangkapi.ac.th/,1861,80,145,13.7719651,100.6465128
3110011910,โรงเรียนวัดบึงทองหลาง,1149 แขวงวังทองหลาง เขตบางกะปิ,1006,บางกะปิ,โรงเรียนขนาดใหญ่  (จำนวนนักเรียนตั้งแต่ 801 คนขึ้นไป),0 2138 8862,-,-,1926,64,94,13.79510917,100.6254403
3110011301,โรงเรียนบางจาก (นาคเผื่อนอุปถัมป์),263 ซ.สุขุมวิท 58 แขวงบางจาก เขตพระโขนง,1009,พระโขนง,โรงเรียนขนาดกลาง  (จำนวนนักเรียนตั้งแต่ 401-800 คน),0 2741 6310,-,facebook.com/bangjak.school,301,16,20,13.69644485,100.5955557
3110011302,โรงเรียนวัดราษฎร์ศรัทธาธรรม,774 ซ.พึ่งมี ถ.สุขุมวิท 93 แขวงบางจาก เขตพระโขนง,1009,พระโขนง,โรงเรียนขนาดใหญ่  (จำนวนนักเรียนตั้งแต่ 801 คนขึ้นไป),0 2331 2965,0 2331 2965,www.watrat2016.com,626,29,34,13.7025169,100.6222963
3110021303,โรงเรียนพูนสิน (เพชรสุขอุปถัมภ์),ซ.สุขุมวิท 66/1 (ซ.พูนสิน) แขวงบางจาก เขตพระโขนง,1009,พระโขนง,โรงเรียนขนาดกลาง  (จำนวนนักเรียนตั้งแต่ 401-800 คน),0 2744 8840,-,facebook.com/poonsin.active,339,18,25,13.68333031,100.6037686
3110011304,โรงเรียนวัดธรรมมงคล (หลวงพ่อวิริยังค์อุปถัมป์),132 ถ.สุขุมวิท 101 แขวงบางจาก เขตพระโขนง,1009,พระโขนง,โรงเรียนขนาดกลาง  (จำนวนนักเรียนตั้งแต่ 401-800 คน),0 2741 7684,-,www.mettadham.ca/dhammamongkol%20primary%20school.htm,351,13,21,13.68883233,100.6153153
3110021601,โรงเรียนไทยนิยมสงเคราะห์,79 หมู่ 3 ถ.พหลโยธิน แขวงอนุสาวรีย์ เขตบางเขน,1005,บางเขน,โรงเรียนขนาดใหญ่  (จำนวนนักเรียนตั้งแต่ 801 คนขึ้นไป),0 2521 0427,0 2521 0198,www.thainiyom.ac.th/,2758,94,133,13.87736151,100.5982375
3110011911,โรงเรียนมัธยมบ้านบางกะปิ,ถ.นวมินทร์ แขวงคลองจั่น เขตบางกะปิ,1006,บางกะปิ,โรงเรียนขนาดใหญ่  (จำนวนนักเรียนตั้งแต่ 801 คนขึ้นไป),0 2377 3707,-,www.mbp.ac.th/,1956,66,93,13.77177263,100.6469091
3110021807,โรงเรียนมัธยมประชานิเวศน์,ถ.เทศบาลรังรักษ์เหนือ แขวงลาดยาว เขตจตุจักร,1030,จตุจักร,โรงเรียนขนาดใหญ่  (จำนวนนักเรียนตั้งแต่ 801 คนขึ้นไป),0 2591 5474,-,www.mpns.ac.th,1751,51,94,13.84371573,100.5465548
3110023708,โรงเรียนมัธยมนาคนาวาอุปถัมภ์,96/1 ซอยพัฒนาการ 26 แขวงสวนหลวง สำนักงานเขตสวนหลวง กรุงเทพ,1034,สวนหลวง,โรงเรียนขนาดใหญ่  (จำนวนนักเรียนตั้งแต่ 801 คนขึ้นไป),0 2318 8028,0 2318 8028,www.mtynnw.ac.th/,1009,25,54,13.73152041,100.6130275
3110011516,โรงเรียนมัธยมสุวิทย์เสรีอนุสรณ์,401/2 ซอย อ่อนนุุช 70/1 ถนน อ่อนนุช แขวประเวศ เขตประเวศ กรุงเทพมหานคร 10250,1032,ประเวศ,โรงเรียนขนาดใหญ่  (จำนวนนักเรียนตั้งแต่ 801 คนขึ้นไป),0 2321 5355,0 2321 5355,www.msuwit.ac.th/,1717,43,75,13.70920385,100.6620408
3110013603,โรงเรียนวัดใหม่ช่องลม,2042 ถนนเพชรบุรีตัดใหม่ แขวงบางกะปิ เขตห้วยขวาง กรุงเทพฯ 10310,1017,ห้วยขวาง,โรงเรียนขนาดเล็ก  (จำนวนนักเรียนตั้งแต่ 1-400 คน),0 2314 4311,0 2319 5050,www.mlschool.ac.th/,146,8,12,13.74914205,100.5717219
3110010304,โรงเรียนมัธยมปุรณาวาส,29 ซอยศาลาธรรมสพน์58 แขวงศาลาธรรมสพน์ เขตทวีวัฒนา กรุงเทพมหานคร 10170,1048,ทวีวัฒนา,โรงเรียนขนาดกลาง  (จำนวนนักเรียนตั้งแต่ 401-800 คน),0 2441 5160,0 2441 5160,www.mpn.ac.th/,1329,37,71,13.80124087,100.3369944
3110022308,โรงเรียนมัธยมวัดสุทธาราม,403/1 ถ.เจริญนคร แขวงบางลำภูล่าง,1018,คลองสาน,โรงเรียนขนาดใหญ่  (จำนวนนักเรียนตั้งแต่ 801 คนขึ้นไป),-,-,facebook.com/โรงเรียนมัธยมวัดสุทธาราม-306749382843728/,1206,32,57,13.7130729,100.4934753
3110014809,โรงเรียนคงโครัดอุทิศ,24 หมู่ 8 ซอยเอกชัย 50 ถ.เอกชัย แขวงบางบอน เขตบางบอน กรุงเทพ,1050,บางบอน,โรงเรียนขนาดเล็ก  (จำนวนนักเรียนตั้งแต่ 1-400 คน),0 2415 5906,0 2415 5906,https://sites.google.com/site/khongkhoruduthid/,763,24,37,13.68201892,100.4359617
